id	title	startTime	endTime	url	tags	address	name	latitude	longitude	city
464	BEST Leuven x Twipe - Hackathon	2022-03-24 17:30:00+00:00	2022-03-24T19:30:00Z	https://fb.me/e/1vsfVR8mm		Gaston Geenslaan 8, 3000 Leuven	Twipe			Leuven
483	Interfacultair Welsprekendheidstoernooi 2022	2022-03-03 19:00:00+00:00	2022-03-03T22:00:00Z	https://www.facebook.com/events/451913229608117?acontext=%7B%22event_action_history%22%3A[%7B%22surface%22%3A%22page%22%7D]%7D	Education, Culture	Andreas Vesaliusstraat 11, 3000 Leuven	Aula Vesalius	50.87523453467831	4.708046959338366	Leuven
492	Hacking maakleerplek	2022-03-09 16:00:00+00:00	2022-03-09T21:00:00Z	https://www.eventbrite.be/e/hacking-maakleerplek-tickets-245784617407	Education, International, Workshop, Career	Stapelhuisstraat 13/15	maakleerplek	50.88657969955178	4.705075071749865	Leuven
493	Torchlight Walk	2022-02-10 17:00:00+00:00	2022-02-10T20:45:00Z	https://fb.me/e/1FCKGDfXh	Sport, International, First-year students	Tervuursevest 101/bus 1502, 3001 Leuven	Universitair Sportcentrum KULeuven			Leuven
494	Four of a kind	2022-02-07 19:30:00+00:00	2022-02-07T21:30:00Z	https://fb.me/e/1CyC8EPqg	Quiz, International, First-year students	Andreas Vesaliusstraat 34, 3000 Leuven	Pangaea KU Leuven lounge			Leuven
495	Inspirational Talks: impactful entrepreneurs share their story	2022-03-02 18:00:00+00:00	2022-03-02T21:00:00Z	https://lrd.kuleuven.be/kuleuvenkick/skills/kickchallenge/inspirationaltalks	Education, International, Lecture, Career	Leopold Vanderkelenstraat 28, 3000 Leuven	Museum M	50.87917790189925	4.70443670600432	Leuven
496	Cocktails & Cupids Fac	2022-02-13 20:00:00+00:00	2022-02-13T22:59:00Z	https://www.facebook.com/events/633353307916154	Party	Zeelstraat 1, 3000 Leuven	't archief leuven	50.87825386380738	4.700236366686998	Leuven
497	Brown Bag Lunch - Student-entrepreneur, what's in a name?	2022-02-23 12:00:00+00:00	2022-02-23T13:00:00Z	https://www.eventbrite.be/e/brown-bag-lunch-student-entrepreneur-whats-in-a-name-tickets-229243562667	Workshop, Lecture, Career	Naamsestraat 11-13	Studio Start	50.8779424622272	4.700885461268602	Leuven
498	Get a Taste of Engage	2022-02-21 08:00:00+00:00	2022-02-21T16:00:00Z	https://www.facebook.com/events/651674582545065/?ref=newsfeed	Education, Charity, International	Edward van Evenstraat 4	Agora Learning Centre			Leuven
499	Eerstejaars Speeddate: Verboden Liefde	2022-02-15 19:30:00+00:00	2022-02-15T21:30:00Z	https://www.facebook.com/events/2828146823998131		Erasmusplein	Arena	50.87748889533332	4.708840893206774	Leuven
500	Semester Kick-Off: Data & Sport x Info Event Consulting Projects	2022-02-22 19:00:00+00:00	2022-02-22T21:00:00Z	https://www.eventbrite.co.uk/e/semester-kick-off-data-sport-x-info-event-consulting-projects-tickets-263608198217		Parkstraat 51, 3000 Leuven	Aula Max Weber			Leuven
502	Workshop Data Science in practice by Addestino	2022-02-23 19:00:00+00:00	2022-02-23T21:00:00Z	https://www.aftleuven.be/works.../addestino-ai-data-science/		Naamsestraat 61 3000 Leuven	CPR College van Premonstreit (Lokaal 1.43)	50.875518874463154	4.700295375285326	Leuven
503	Open Meeting 2.0	2022-02-21 17:15:00+00:00	2022-02-21T19:00:00Z	https://www.facebook.com/events/276734191255186/?acontext=%7B%22event_action_history%22%3A[%7B%22extra_data%22%3A%22%22%2C%22mechanism%22%3A%22left_rail%22%2C%22surface%22%3A%22bookmark%22%7D%2C%7B%22extra_data%22%3A%22%22%2C%22mechanism%22%3A%22surface%22%2C%22surface%22%3A%22create_dialog%22%7D]%2C%22ref_notif_type%22%3Anull%7D	International, First-year students	Kasteelpark Arenberg 38	De Boshut			Leuven
504	Eerste- & Tweedejaars Fakbartocht	2022-02-17 21:30:00+00:00	2022-02-17T23:30:00Z	https://www.facebook.com/events/979017752727235	Party, First-year students	Blijde Inkomststraat 11	Historia Perma	50.87733319224738	4.708132790026842	Leuven
505	The world of finance: The age & gender gap	2022-02-22 19:00:00+00:00	2022-02-22T22:55:00Z	https://www.facebook.com/events/468353381587686?acontext=%7B%22event_action_history%22%3A[%7B%22mechanism%22%3A%22search_results%22%2C%22surface%22%3A%22search%22%7D]%2C%22ref_notif_type%22%3Anull%7D	Education, Lecture	Andreas Vesaliusstraat 11, 3000 Leuven	Aula Vesalius			Leuven
506	Erotic Night	2022-02-17 21:00:00+00:00	2022-02-18T05:00:00Z	https://fb.me/e/1y2DuFiGT	Party	Brusselsestraat 246	Doc's Bar			Leuven
507	Après Après-ski Party	2022-02-21 19:00:00+00:00	2022-02-22T02:00:00Z	https://www.facebook.com/events/4827686800617969?acontext=%7B%22event_action_history%22%3A[%7B%22surface%22%3A%22page%22%7D]%7D	Party	Tiensestraat 53	Huis der Rechten			Leuven
509	Going International	2022-02-22 18:30:00+00:00	2022-02-22T21:00:00Z	https://ekonomika.be/evenementen/going-international/	Culture, International, Lecture, Career	Naamsestraat 59 , 3000 Leuven	ZI 02.21	50.87594538088993	4.70094446986693	Leuven
510	Recruitment info event: join AIESEC in Leuven	2022-02-28 19:00:00+00:00	2022-02-28T21:00:00Z	https://fb.me/e/1jr7c26BE	Education, Culture, International, Career	Edward van Evenstraat 4, 3000 Leuven, Belgium	Hall Couvreur, Agora learning Center			Leuven
511	Bondingsnamiddag eerstejaars	2022-02-24 14:00:00+00:00	2022-02-24T15:30:00Z	https://www.facebook.com/events/494473748861646?ref=newsfeed	First-year students	Tiensestraat 115 Leuven	Alma 1			Leuven
512	Info Event 180 Degrees Consulting Leuven	2022-02-21 19:30:00+00:00	2022-02-21T21:30:00Z	https://www.facebook.com/events/2601676423310486	Education, Workshop, Lecture, Career	Tiensestraat 41 , 3000 Leuven	Aula Zeger van Hee - DV1 91.56	50.87794246222733	4.704710291323839	Leuven
514	Get 2 know BEST 	2022-02-21 19:00:00+00:00	2022-02-21T22:55:00Z	https://fb.me/e/37be6fp8f	International	Kasteelpark Arenberg 41, 3001 Leuven	BEST office	50.861032263593685	4.683000491557299	Leuven
515	BSST session 1: Deloitte - Negotiation Skills	2022-03-02 18:00:00+00:00	2022-03-02T20:00:00Z	https://fb.me/e/2VxBSin1W	Career	Kasteelpark Arenberg 1, 3001 Heverlee	Arenbergkasteel	50.86314171831919	4.68346719592589	Leuven
516	BSST session 2: Exellys - Peak performance	2022-03-09 18:00:00+00:00	2022-03-09T20:00:00Z	https://fb.me/e/2VxBSin1W	Career	Kasteelpark Arenberg 10, 3001 Heverlee	Thermotechnisch Instituut (TTI)	50.861098291311976	4.683314310012041	Leuven
517	14e Vlaamse Improcup	2022-03-03 19:00:00+00:00	2022-03-03T22:00:00Z	https://fb.me/e/2aaUApknH	Culture	Pieter De Somer Aula, Charles Deberiotstraat 24, 3000 Leuven	Pieter De Somer Aula			Leuven
520	BSST session 3: Johnson & Johnson - Diversity & Inclusion 	2022-03-16 18:00:00+00:00	2022-03-16T20:00:00Z	https://fb.me/e/2VxBSin1W	Career	Kasteelpark Arenberg 10, 3001 Heverlee	Thermotechnisch Instituut	50.86110675639747	4.683343814311205	Leuven
521	BSST session 4: Lanark - Time Management	2022-03-23 18:00:00+00:00	2022-03-23T20:00:00Z	https://fb.me/e/2VxBSin1W	Career	Kasteelpark Arenberg 20, 3001 Heverlee	Aula Jozef Heuts, Landbouwinstituut	50.86357510971871	4.687270568309008	Leuven
522	BSST session 5: Sweco - Personal Branding	2022-03-28 17:00:00+00:00	2022-03-28T19:00:00Z	https://fb.me/e/2VxBSin1W	Career	Kasteelpark Arenberg 10, 3001 Leuven	Thermotechnisch Instituut	50.86107628208296	4.683311627803026	Leuven
524	Historia party - Welcome Back MotherFAKker	2022-02-22 19:00:00+00:00	2022-02-22T22:59:00Z	https://www.facebook.com/events/313074104117849	Party	Blijde Inkomststraat 11	Fakbar Letteren	50.877272264811296	4.7080737814285145	Leuven
525	Eerste Vergadering Eerstejaarsfeestje	2022-02-23 19:00:00+00:00	2022-02-23T21:00:00Z	https://www.facebook.com/events/1401388530316945	Workshop, First-year students	Blijde Inkomststraat 11	Historia Perma	50.87729257396551	4.708089874682604	Leuven
526	Corona Birthday Fac	2022-02-20 22:00:00+00:00	2022-02-21T02:00:00Z	https://www.facebook.com/events/1132329097594577	Party	Zeelstraat 1, 3000 Leuven	't Archief live- en danscafé leuven	50.878240324651465	4.700268553195177	Leuven
527	Diana's Kroegentocht	2022-02-24 18:30:00+00:00	2022-02-24T22:00:00Z	https://www.facebook.com/events/331049985702477	Party	Standonckstraat 4, 3000 Leuven	Thomas Stapleton			Leuven
528	Diana's Sweet Tropical TD	2022-03-10 21:00:00+00:00	2022-03-11T05:00:00Z	https://www.facebook.com/events/492346289080364	Party	 Kiekenstraat 6 3000 Leuven	Rumba & Co	50.87872096227587	4.700429485736071	Leuven
529	Buizencantus	2022-02-21 18:30:00+00:00	2022-02-21T22:55:00Z	https://ekonomika.be/evenementen/buizencantus/	Cantus, Party	Tervuursevest 60, 3000 Leuven	Waaiberg			Leuven
530	Zware Buizencantus - met Zware Buizen	2022-02-23 18:30:00+00:00	2022-02-23T22:55:00Z	https://ekonomika.be/evenementen/zware-buizencantus/	Cantus, Party	Tiensestraat 51, 3000 Leuven	Recup			Leuven
531	Going International	2022-02-22 18:30:00+00:00	2022-02-22T22:55:00Z	https://ekonomika.be/evenementen/going-international/	International, Lecture, Career	Naamsestraat 59, 3000 Leuven	ZI 02.21			Leuven
532	Schaat TD	2022-02-24 21:00:00+00:00	2022-02-25T03:00:00Z	https://ekonomika.be/evenementen/schaats-td/	Sport, Party	Ondernemingenweg 1, 3000 Leuven	Ijsbaan Leuven			Leuven
533	Business IT Fair	2022-02-24 10:00:00+00:00	2022-02-24T13:00:00Z	https://ekonomika.be/evenementen/business-it-fair-2/	Career	Universiteitshal, 3000 Leuven	Jubileumzaal			Leuven
534	PAL Info Sessie	2022-02-24 18:00:00+00:00	2022-02-24T20:00:00Z	https://ekonomika.be/evenementen/pal-infosessie/	Education	Dekenstraat 2, 3000 Leuven	VHI			Leuven
535	Beursdebat	2022-02-28 18:30:00+00:00	2022-02-28T22:55:00Z	https://ekonomika.be/evenementen/beursdebat/	Lecture, Career	Andreas Vesaliusstraat 11, 3000 Leuven	Aula Vesalius			Leuven
536	Career Brunch II	2022-03-02 10:00:00+00:00	2022-03-02T14:00:00Z	https://ekonomika.be/evenementen/career-brunch-ii-3/	Career	Philipssite 6, 3001 Leuven	Sportoase			Leuven
537	Engineering Case Study Competition (ECSC)	2022-03-03 07:00:00+00:00	2022-03-03T20:00:00Z	https://fb.me/e/3T84V1u3o	Career	Kasteelpark Arenberg 10, 3001 Heverlee	Thermotechnisch Instituut (TTI)	50.86112368656335	4.683386729655443	Leuven
538	Historia's Fantastic Cantus | Historia Feestweek	2022-02-28 19:00:00+00:00	2022-02-28T22:59:00Z	https://www.facebook.com/events/647109189951240	Cantus	Tiensestraat 51	Recup	50.87724857078685	4.704844401774584	Leuven
539	The Red Wedding Ball | Historia Feestweek	2022-02-27 20:00:00+00:00	2022-02-28T02:00:00Z	https://www.facebook.com/events/655879805737965	Party	Blijde Inkomststraat 11	Fakbar Letteren	50.87731965282406	4.708079145846544	Leuven
540	Health of Tomorrow	2022-03-01 19:00:00+00:00	2022-03-01T21:00:00Z	https://fb.me/e/2PtwusApM	Education, Lecture	Parkstraat 51	Aula Jean Monnet			Leuven
541	Meat's back on the Menu eetverkoop | Historia Feestweek	2022-02-28 11:30:00+00:00	2022-02-28T13:00:00Z	https://www.facebook.com/events/370585984881168	Culinary	Erasmusplein	Achter Fakbar Letteren	50.87742796810072	4.708229349551378	Leuven
542	Wies Degraeve on campus: discussion evening on human rights	2022-02-23 19:00:00+00:00	2022-02-23T21:00:00Z	https://www.facebook.com/events/972632016714808	International, Lecture	Dekenstraat 2 3000 Leuven	Aula 02.29 VHI	50.87472339569863	4.707424686846911	Leuven
552	Het Solar Team rekruteert! Infosessie Groep T	2022-02-28 19:00:00+00:00	2022-02-28T21:00:00Z	https://fb.me/e/17YVDTj0S	Education, Career	Andreas Vesaliusstraat 13, 3000 Leuven	Campus Groep T	50.874824946935234	4.707526610789476	Leuven
554	Het Solar Team rekruteert! Infosessie Theokot	2022-03-03 19:00:00+00:00	2022-03-03T22:00:00Z	https://fb.me/e/1WUmeyGad	Education, Career	Kasteelpark Arenberg 41, 3001 Leuven	Theokot	50.86134377816269	4.6840787395812855	Leuven
555	Lord of the Drinks: The Return of the Ballenbad | Historia Feestweek	2022-03-01 20:00:00+00:00	2022-03-01T22:59:00Z	https://www.facebook.com/events/1353718628413125	Party	Blijde Inkomststraat 11	Fakbar Letteren	50.8772858042484	4.708057688174425	Leuven
557	Psychofamilycantus	2022-03-01 18:30:00+00:00	2022-03-02T00:00:00Z	https://www.facebook.com/events/642349433705764	Cantus, First-year students	Tervuursevest 60, 3000 Leuven	De Waaiberg			Leuven
562	Snape's Potion Class - Cocktailworkshop | Historia Feestweek	2022-03-02 19:30:00+00:00	2022-03-02T22:00:00Z	https://www.facebook.com/events/302329978466013	Culinary, Workshop	Blijde Inkomsstraat 11	Historia Perma	50.87731288311088	4.708111332354723	Leuven
564	Second Breakfast - sale | Historia Feestweek	2022-03-02 23:30:00+00:00	2022-03-03T01:30:00Z	https://www.facebook.com/events/679587509725510	Culinary	Erasmusplein 1	MSI	50.87754305280647	4.707961128649889	Leuven
565	Infoavond: Get to know BeMSA	2022-03-02 19:00:00+00:00	2022-03-02T21:00:00Z	https://fb.me/e/1vAJ9TOhz	Education, Charity, International, First-year students	Erasmusplein 2 Leuven	MSI 1 00.14			Leuven
566	Historia's Fantastische Filmfestijn | Historia Feestweek	2022-03-03 19:00:00+00:00	2022-03-03T22:00:00Z	https://www.facebook.com/events/1163227984480843	Culture	Blijde Inkomststraat 11	Historia Perma	50.87731288311088	4.708122061190783	Leuven
567	Neo4j Workshop by Dotdash	2022-03-17 18:00:00+00:00	2022-03-17T20:00:00Z	https://www.eventbrite.co.uk/e/neo4j-emergent-workshop-by-dotdash-tickets-278255879827?aff=quivr	Workshop	Naamsestraat 69, 3000 Leuven	Huis de Munter (HOGM)			Leuven
571	Bloedserieusquiz	2022-03-07 19:00:00+00:00	2022-03-07T22:30:00Z	https://www.facebook.com/events/3214591928824597/	Charity, Quiz	Kardinaal Mercierlaan 46	OHL stadion 'Den Dreef'	50.86803068142265	4.693874166903673	Leuven
572	QUIZzical³	2022-03-10 18:00:00+00:00	2022-03-10T22:00:00Z	https://www.facebook.com/events/495811271956851	Education, Culture, Quiz, First-year students	Andreas Vesaliusstraat 11, 3000 Leuven	Aula Vesalius	50.87546809962852	4.708309815821825	Leuven
573	Galabal NFK: roaring 20's edition	2022-03-23 19:00:00+00:00	2022-03-24T03:00:00Z		Party	Muntstraat 5, 3000 Leuven	MusiCafe			Leuven
576	European Board Game Night 	2022-03-08 19:00:00+00:00	2022-03-08T21:00:00Z	https://www.facebook.com/events/932798007402587	Culture, Charity	Naamsestraat 49 	Noir Coffeebar 			Leuven
577	LCMSA OPEN EVENT// Onderhandelen in de event- en muzieksector	2022-03-09 18:30:00+00:00	2022-03-09T21:00:00Z	https://www.facebook.com/events/1010215919580436?acontext=%7B%22event_action_history%22%3A[%7B%22extra_data%22%3A%22%22%2C%22mechanism%22%3A%22your_upcoming_events_unit%22%2C%22surface%22%3A%22bookmark%22%7D%2C%7B%22extra_data%22%3A%22%22%2C%22mechanism%22%3A%22left_rail%22%2C%22surface%22%3A%22bookmark%22%7D%2C%7B%22extra_data%22%3A%22%22%2C%22mechanism%22%3A%22your_upcoming_events_unit%22%2C%22surface%22%3A%22bookmark%22%7D]%2C%22ref_notif_type%22%3Anull%7D	Education, Lecture	Parkstraat 51 , 3000 Leuven	Aula Jean Monnet (AP.01.30)			Leuven
578	By Order Of Historia - Eerstejaarsfeestje	2022-03-08 19:00:00+00:00	2022-03-08T22:59:00Z	https://www.facebook.com/events/1348464845666934	Party, First-year students	Blijde Inkomststraat 11	Fakbar Letteren	50.87733657710263	4.708143518862902	Leuven
579	Historia FIFA-tournament	2022-03-10 18:30:00+00:00	2022-03-10T21:30:00Z	https://www.facebook.com/events/719211555781112	Sport	Blijde Inkomststraat 11	Historia Perma	50.87729934368155	4.708089874682604	Leuven
581	Infosessie Praesidium Historia	2022-03-09 17:00:00+00:00	2022-03-09T19:00:00Z	https://www.facebook.com/events/1719297871749126	Workshop	Erasmusplein 1	MSI 1.28	50.87761751922928	4.707843111453234	Leuven
582	Data Science & AI Career Night	2022-03-23 18:30:00+00:00	2022-03-23T21:00:00Z	https://lnkd.in/ewtvbhbu		Edward van Evenstraat 4, 3000 Leuven	Couvreur (Agora)			Leuven
588	Kringverkiezingen Politika 	2022-04-17 19:00:00+00:00	2022-04-21T18:00:00Z	https://fb.me/e/14IZwuF8s	Career	Parkstraat 45	Faculteit sociale wetenschappen 			Leuven
589	Cantusweek: Rumble in the Jungle 	2022-03-10 19:00:00+00:00	2022-03-10T22:50:00Z	https://fb.me/e/5lVprFbmr	Cantus	tiensestraat 51	Recup 			Leuven
590	Duocantus Wina-Eoos	2022-03-07 19:00:00+00:00	2022-03-08T00:00:00Z	https://www.wina.be/en/evenementen/2022-duocantus-wina-eoos/	Cantus	Steengroevenlaan 3, 3001 Leuven	't RC, onder Alma 3			Leuven
591	Schachtenconvent 2	2022-03-08 18:00:00+00:00	2022-03-08T21:00:00Z	https://www.wina.be/nl/evenementen/2022-schachtenconvent-2/	Cantus, Culture, Lecture, First-year students	Celestijnenlaan 200S	Lokaal 00.03			Leuven
592	Inzamelactie en koekjesverkoop 1	2022-03-09 14:00:00+00:00	2022-03-09T16:00:00Z	https://www.wina.be/en/evenementen/2022-inzamelactie-1/	Charity	Celestijnenlaan 200A, 3001 Leuven	Foyer van de A			Leuven
593	Marginal bar	2022-03-09 21:00:00+00:00	2022-03-10T04:00:00Z	https://www.wina.be/en/evenementen/marginal-bar/	Party	Steengroevenlaan 3, 3001 Leuven	't RC			Leuven
594	Braadworsteneetstand	2022-03-10 10:00:00+00:00	2022-03-10T15:00:00Z	https://www.wina.be/en/evenementen/2022-braadworsteneetstand/	Culinary	Celestijnenlaan 200A, 3001 Leuven	Grass square next to 200A			Leuven
595	Opening Night interfacultair theaterfestival	2022-03-08 18:30:00+00:00	2022-03-08T22:00:00Z	https://iftf.be/	Culture	Minnepoort, Dirk Boutslaan 62, 3000 Leuven	Minnepoort			Leuven
596	Gain Engineering Experience Abroad	2022-03-08 19:00:00+00:00	2022-03-08T21:00:00Z	https://fb.me/e/2cnfEAuYy	Culture, International, Career	Andreas Vesaliusstraat 13, 3000 Leuven	Group T			Leuven
597	Boitten met de rougékes TD	2022-03-09 21:00:00+00:00	2022-03-10T05:00:00Z	https://www.facebook.com/events/1025531174707972	Party, International, First-year students	Muntstraat 5, 3000 Leuven	MusiCafe	50.87828432689367	4.702146099505602	Leuven
598	KICK Entrepreneurial Week @Agora Learning Centre	2022-03-14 09:00:00+00:00	2022-03-18T17:00:00Z	https://bib.kuleuven.be/agora/kick-ondernemerschapsweek	Education, Workshop, Lecture, Career	Edward Van Evenstraat 4 B,3000 Leuven	Agora Learning Centre	50.874273182551214	4.704270409045397	Leuven
599	The Future is Female	2022-03-15 18:00:00+00:00	2022-03-15T21:00:00Z	https://www.eventbrite.be/e/the-future-is-female-tickets-274845439107	Education, International, Workshop, Lecture, Career, First-year students	Onze-Lievevrouwstraat 46,  3000 Leuven	Villa aan de Aa			Leuven
600	Theatre Bakesale	2022-03-14 11:00:00+00:00	2022-03-14T17:00:00Z	https://www.facebook.com/events/688865562473291	Culinary	Erasmusplein	MSI & Erasmushuis	50.87724857078685	4.709404157099901	Leuven
604	Lecture Cybercrime	2022-03-10 18:30:00+00:00	2022-03-10T21:00:00Z	https://www.facebook.com/events/1309667439443589/?acontext=%7B%22event_action_history%22%3A[%7B%22mechanism%22%3A%22search_results%22%2C%22surface%22%3A%22search%22%7D]%2C%22ref_notif_type%22%3Anull%7D	Education, Lecture	Parkstraat 45	Auditorium Jean Monnet			Leuven
605	Supply Chain Fair	2022-03-14 10:00:00+00:00	2022-03-14T14:00:00Z	https://fb.me/e/1N6RyQKHV	Career	Universiteitshal, Leuven	Jubileumzaal			Leuven
606	Finance Fair	2022-03-14 10:00:00+00:00	2022-03-14T14:00:00Z	https://fb.me/e/1sWoYLU1D	Career	Universiteitshal, Leuven	Jubileumzaal			Leuven
607	LCC: Selection Case Day - LEUVEN	2022-03-15 09:00:00+00:00	2022-03-15T20:00:00Z	https://fb.me/e/X9LC4SC6	Education, Workshop, Career	University Hall, Leuven	Jubileumzaal			Leuven
609	Open kringvergadering	2022-03-14 19:00:00+00:00	2022-03-14T22:00:00Z	https://www.facebook.com/events/736105394203834	Career	Erasmusplein 2	MSI 00.14	50.87763782823307	4.707880662379442	Leuven
610	Ekonomika Revue: FEB Zoekt Decaan	2022-03-16 19:00:00+00:00	2022-03-17T22:00:00Z	https://fb.me/e/1kJh3bYqi	Culture	Leuven	Pieter De Somer Aula			Leuven
613	Open Visiedag 2	2022-03-09 18:00:00+00:00	2022-03-09T22:00:00Z	https://fb.me/e/2cLletK9N	Workshop, Career	Dekenstraat 2, 3000 Leuven	Ekobar			Leuven
614	Future Self Day International Business & Entrepreneurship	2022-03-09 12:00:00+00:00	2022-03-09T17:00:00Z	https://fb.me/e/2jNfGZFgG	Education, Lecture, Career	Andreas Vesaliusstraat 13, 3000 Leuven	Groep T			Leuven
616	Peter & Meter Cantus: Battle of the Bands	2022-03-09 19:00:00+00:00	2022-03-09T22:00:00Z	https://fb.me/e/1qbaKAlj9	Cantus, First-year students	Tervuursevest 60, 3000 Leuven	Waaiberg			Leuven
617	Le Fak du Connemara | Fak Letteren Ierse week	2022-03-15 20:00:00+00:00	2022-03-16T02:00:00Z	https://www.facebook.com/events/333684158783655	Party	Blijde Inkomststraat 11	Fakbar Letteren	50.8772824193895	4.7080737814285145	Leuven
618	Sport of the Month: Wall Climbing	2022-03-09 16:00:50+00:00	2022-03-09T17:30:50Z	https://fb.me/e/2en0TakkZ	Sport	Aarschotsesteenweg 112 3012 Wilsele	Klimzaal de Stordeur			Leuven
621	Theatre Chocolatemilk sale	2022-03-15 11:00:00+00:00	2022-03-15T17:00:00Z	https://www.facebook.com/events/4983788545044297	Charity, Culinary	Erasmusplein	MSI &Erasmushuis	50.87725195564825	4.709506081042467	Leuven
623	Dance Lessons VTK & LBK - Samba	2022-03-17 19:00:00+00:00	2022-03-17T20:00:00Z	https://fb.me/e/1qNurwbEW	Sport	Naamsesteenweg 355, 3001 Heverlee	Muvolokaal - Flos Campi - Heilig Hart van Heverlee			Leuven
631	WEB3.0 & Blockchain by Aviate Labs	2022-03-15 19:00:00+00:00	2022-03-15T21:00:00Z	https://www.aftleuven.be/workshops/aviate-labs-web-3-0/	Workshop	Naamsestraat 61, 3000 Leuven	CPR College van Premonstreit 	50.87556287927516	4.700290010867296	Leuven
632	Recruiting Event AFT 2022 - 2023	2022-03-30 18:00:00+00:00	2022-03-30T21:00:00Z	https://bit.ly/362lpo5		Edward Van Evenstraat 4, 3000 Leuven	Zaal Couvreur	50.873472604820975	4.704372332987963	Leuven
633	Braingasmic Quizavond	2022-03-16 18:00:00+00:00	2022-03-16T20:00:00Z	https://fb.me/e/1f6JZlcK1	Culture, Quiz	Andreas Vesalius 13, 3000 Leuven	Campus Groep T - Lokaal 03.11.02			Leuven
634	Upperdare BeMSA Leuven	2022-03-17 18:30:00+00:00	2022-03-17T20:30:00Z	https://fb.me/e/1Ib7EqTOc	Culture	Tiensestraat 49, 3000 Leuven				Leuven
638	Karaoke Rewind: 00's Edition	2022-03-17 21:00:00+00:00	2022-03-18T04:00:00Z	https://www.facebook.com/events/1878464169018016/	Charity, Party	Muntstraat 5, 3000 Leuven	Musicafe Leuven			Leuven
641	CleanTech Challenge: Belgian Finals	2022-03-29 17:00:00+00:00	2022-03-29T21:00:00Z	https://www.facebook.com/events/1278077226017680	International, Career	Andreas Vesaliusstraat 13, 3000 Leuven	KU Leuven - Campus Groep T	50.87481479182147	4.7078752979614125	Leuven
642	Historia Muurklimmen	2022-03-21 13:00:00+00:00	2022-03-21T15:00:00Z	https://www.facebook.com/events/472739911241560	Sport	Aarschotsesteenweg 112, 3012 Wilsele	De Stordeur	50.89927542634483	4.707344220576464	Leuven
644	Beiaardcantus 2022	2022-05-11 16:00:00+00:00	2022-05-11T20:00:00Z	https://fb.me/e/1k46ZdxaY	Cantus, Party	Monseigneur Ladeuzeplein, 3000 Leuven, Belgium		50.87846372022027	4.706534193453966	Leuven
645	Laat je inspireren door jonge ondernemers	2022-03-30 17:00:00+00:00	2022-03-30T19:30:00Z	https://www.kuleuven.be/stuvo/na-je-studie/evenementen/solliciteerweek/ondernemerschap	Education, Workshop, Lecture, Career	Naamsestraat 11, 3000 Leuven	Studio Start			Leuven
646	Pati Pati Concerts	2022-03-29 17:45:00+00:00	2022-03-29T19:45:00Z	https://fb.me/e/2aXwv8Vk8	Culture, Charity, International	Matadilaan 6, 3001 Heverlee	Mariakapel	50.86663582178387	4.707853840289293	Leuven
647	Pati Pati Concerts	2022-03-31 17:45:00+00:00	2022-03-31T19:45:00Z	https://fb.me/e/2aXwv8Vk8	Culture, Charity, International	Matadilaan 6, Heverlee 3001	Mariakapel	50.86662905051881	4.707810924945055	Leuven
648	Historia op de Kringenzuip // 2021-2022	2022-03-22 19:00:00+00:00	2022-03-23T02:00:00Z	https://www.facebook.com/events/288210033460041	Party	Blijde Inkomststraat 11	Fakbar Letteren	50.87727903453036	4.708057688174425	Leuven
650	Climate policy: the beauty or the beast? 	2022-03-22 19:00:00+00:00	2022-03-22T21:00:00Z	https://fb.me/e/3fO1SMySL	Education, International, Lecture	Joris Helleputteplein 2 	Wereldcafé.coop			Leuven
654	De Werfingsavond	2022-03-30 17:00:00+00:00	2022-03-30T20:00:00Z	https://fb.me/e/2ktxlxxA4		's Meiersstraat 5, 3000 Leuven	LOKO	50.87784768742023	4.702403591571032	Leuven
655	NFKupid: galabal edition	2022-03-22 21:00:00+00:00	2022-03-22T23:00:00Z	https://fb.me/e/1KbsqvJQ1		Kardinaal Mercierplein 2, 3000 Leuven	HIW garden 			Leuven
657	Workshop: Conversational A.I. & NLP to solve business inefficiencies	2022-03-30 17:00:00+00:00	2022-03-30T19:30:00Z	https://www.eventbrite.co.uk/e/workshop-conversational-ai-nlp-to-solve-business-inefficiencies-tickets-299061830987?aff=quivr	Workshop	Vlamingenstraat 83, 3000 Leuven	Room A -1.02, Vlerick Business School – Campus Leuven			Leuven
659	Historia Quiz	2022-03-24 19:00:00+00:00	2022-03-24T22:00:00Z	https://www.facebook.com/events/2230085330492293	Quiz	Erasmusplein 2	Parthenonzaal, MSI 03.18	50.877708909676514	4.7079450353958	Leuven
661	Women in Leadership	2022-03-29 17:30:00+00:00	2022-03-29T21:00:00Z	https://fb.me/e/39KtdT1bn	Education, Lecture, Career	Kardinaal Mercierlaan 46, 3001 Leuven	OHL leuven			Leuven
685	Kiesdebat Politika	2022-04-19 11:30:00+00:00	2022-04-19T13:00:00Z	https://fb.me/e/1csrRFa4y	Career	parkstraat 45	Faculteit sociale wetenschappen Leuven, SW 02.05			Leuven
688	Impact Case Day	2022-04-19 20:00:00+00:00	2022-04-19T22:00:00Z	https://fb.me/e/4RXAN9Rkr	Education, Charity, International, Workshop, Career	Selection case: online; main case day: Muntstraat 7	Cera HQ			Leuven
689	Lezing Mounir Souidi - The War on Drugs	2022-04-20 18:00:00+00:00	2022-04-20T20:00:00Z	https://elsa-leuven.be/evenement/lezing-mounir-souidi-the-war-on-drugs/	Lecture	Aula Michotte				Leuven
692	Historia Badminton	2022-03-31 17:00:00+00:00	2022-03-31T19:00:00Z	https://www.facebook.com/events/2819992588294437	Sport	Tervuursevest 101	Gebouw De Nayer - Grote Zaal (unit c)	50.86745513759996	4.690762804446398	Leuven
693	Volunteer abroad with AIESEC!	2022-03-28 18:00:00+00:00	2022-03-28T20:00:00Z	https://fb.me/e/1NVKBNCiF	Education, Culture, International	Tiensestraat 102, 3000 Leuven	PSI 91.93 - Aula Michotte			Leuven
694	Onderwijsvergadering	2022-03-31 16:00:00+00:00	2022-03-31T18:00:00Z	https://www.facebook.com/events/506868170889759	Education	Erasmusplein 2	MSI 01.08	50.87762767373221	4.707869933543383	Leuven
697	Flat Nuts presenteert Sound of Colors	2022-05-07 18:00:00+00:00	2022-05-07T20:00:00Z	https://www.facebook.com/events/490523406069771/490523409403104/?ref=newsfeed	Culture	Naamsesteenweg 355, 3001 Leuven	Heilig Hart Instituut Heverlee	50.8580897026548	4.698305176196276	Leuven
698	Careers Session by ESN Leuven & Vlerick Business School	2022-04-20 16:00:00+00:00	2022-04-20T19:00:00Z		Education, International, Workshop, Career	Vlamingenstraat 83, 3000 Leuven	Vlerick Business School campus Leuven			Leuven
706	Beiaardcantus Ticketsale	2022-04-18 16:00:00+00:00	2022-04-18T17:30:00Z	https://www.facebook.com/events/582652333562098	Cantus	Blijde Inkomststraat 11	Historia CuDi 	50.87729934368163	4.708100603518663	Leuven
710	Cantus op den berg (Cluster x Docentica)	2022-05-04 15:00:00+00:00	2022-05-04T20:00:00Z	https://fb.me/e/28oDl8KbW	Cantus	Lemmensberg 3	Luca School of arts: Campus Lemmens	50.88165206752248	4.680903004107653	Leuven
711	TEDxKULeuven (Re)structure the (De)structured | 6 MAY 2022	2022-05-06 15:00:00+00:00	2022-05-06T21:30:00Z	https://www.eventbrite.be/e/tedxkuleuvenrestructure-the-destructured-6-may-2022-tickets-291159073627	Education, International, Workshop, Lecture, Career	Herestraat 49 , 3000 Leuven	Central Auditorium Gasthuisberg			Leuven
712	Lezing: Dementie, Over Het Brein En De Mens	2022-04-28 17:00:00+00:00	2022-04-28T19:00:00Z	https://fb.me/e/2vX71XNs3	Education, Charity, Lecture	Herestraat 49, 3000 Leuven	Campus Gasthuisberg - ON2 aula BMW 4	50.88060961703728	4.672802732882677	Leuven
713	"Panelgesprek: ""Het nieuw seksueel strafrecht: behoudsgezind of baanbrekend"""	2022-05-04 18:00:00+00:00	2022-05-04T20:00:00Z	https://fb.me/e/2gTEm1L4C	Education, Lecture, Career	Parkstraat 51, 3000 Leuven	Aula Max Weber / Jean Monnet - Auditorium Jean Monnet	50.873051153513735	4.703178749976336	Leuven
714	KICK Challenge Award Ceremony	2022-05-04 16:30:00+00:00	2022-05-04T21:00:00Z	https://lrd.kuleuven.be/kuleuvenkick/english/skills/kickchallenge/award-ceremony	Education, International, Lecture, Career	Leopold Vanderkelenstraat 28, 3000 Leuven	Museum M 	50.87903912811698	4.7046781048156605	Leuven
715	Historia kiesdebat 2022	2022-04-19 17:00:00+00:00	2022-04-19T19:00:00Z	https://www.facebook.com/events/527852832030697		Erasmusplein 2	MSI 00.08	50.87760397988854	4.707961128649889	Leuven
716	PiP Final Gala 2022	2022-05-19 16:00:00+00:00	2022-05-19T21:00:00Z	https://lrd.kuleuven.be/kuleuvenkick/skills/pip/final_gala	Education, International, Workshop, Lecture, Career, First-year students	Provincieplein 1, 3010 Leuven​​​​	 Provinciehuis Leuven			Leuven
717	LE(J)ON awards 2022	2022-05-10 16:30:00+00:00	2022-05-10T20:30:00Z	https://www.leuvenvoorondernemers.be/en/awards	Cantus, International, Career	Boekhandelstraat 2	Radiohuis	50.87857880236801	4.701427267489611	Leuven
718	Recruiting evening for 2022-2023	2022-04-28 17:00:00+00:00	2022-04-28T20:00:00Z	https://facebook.com/events/s/de-werfingscampagne/792012958441300/		's-Meiersstraat 5, 3000 Leuven	LOKO			Leuven
719	PiP infosession 	2022-05-12 17:50:00+00:00	2022-05-12T19:00:00Z	https://docs.google.com/forms/d/e/1FAIpQLSdDlSgfMia1w4hfGn8nBgvl5rY3nxz_tdKlYKrIr4hi74KyxA/viewform	Education, International	Naamsestraat 11/13, Leuven	Studio Start			Leuven
720	Volunteer Abroad with AIESEC	2022-04-26 17:30:00+00:00	2022-04-26T20:00:00Z	https://fb.me/e/1OBzznw0t	Culture, International, Career	Sint-Michielsstraat 6, Leuven	Grote Aula (GRAU)			Leuven
721	LCMSA: Negotiating in times of crisis	2022-05-03 18:00:00+00:00	2022-05-03T20:00:00Z	https://www.facebook.com/events/401855274807792/?ref=newsfeed	Education, Lecture, Career	Parkstraat 51 , 3000 Leuven	Aula Jean Monnet			Leuven
722	Preparee Maakt Het Bond - slotoptreden	2022-05-05 18:00:00+00:00	2022-05-05T20:00:00Z	https://fb.me/e/1E31bf7Hs	Culture	Vesalius Aula; Andreas Vesaliusstraat 11, 3000 Leuven	Vesalius Aula			Leuven
723	Vatje voor de Sfeer	2022-04-26 18:00:00+00:00	2022-04-26T21:59:00Z	https://www.facebook.com/events/431451565454912	Party	Blijde Inkomsstraat 11	Fakbar Letteren	50.87729257396551	4.708122061190783	Leuven
724	It all starts with YOU(TH)!	2022-05-03 16:30:00+00:00	2022-05-09T19:30:00Z	https://www.kuleuven.be/engage/english/it-all-starts-with-you-th?fbclid=IwAR19-9oZH6c2DS5AH88EPKZzMDPKEIZIqEIW0TU_DCUeqLrd455p14lzKXo	Education, Culture, Lecture	Parkstraat 45, 3000 Leuven	Social Sciences Campus			Leuven
725	Historia Proffentap	2022-04-28 10:30:00+00:00	2022-04-28T17:30:00Z	https://www.facebook.com/events/1150970545723030	Culinary	Blijde Inkomststraat 11	Fakbar Letteren	50.87729595882374	4.708046959338366	Leuven
728	Wervingsavond	2022-05-04 18:30:00+00:00	2022-05-04T20:30:00Z	https://www.facebook.com/events/546206083587459?ref=newsfeed		Joris Helleputteplein 2 	Wereldcafé.coop			Leuven
729	Minos International: Eurovision Watch Party 	2022-05-10 18:45:00+00:00	2022-05-10T20:45:00Z	https://www.facebook.com/events/390418999605641/?ref=newsfeed	Culture, Party, International	Naamsestraat 49 	Noir Coffeebar 			Leuven
730	Overdracht en zwanenzang	2022-05-05 20:00:00+00:00	2022-05-06T01:00:00Z	https://www.wina.be/nl/evenementen/2022-overdracht-en-zwanenzang/	Cantus	Jules Vandenbemptlaan 2, 3001 Leuven	PAVO			Leuven
731	Spring Concert	2022-05-02 20:00:00+00:00	2022-05-02T22:30:00Z	https://www.wina.be/en/evenementen/spring-concert/	Culture	Aula Pieter De Somer	Charles Deberiotstraat 24, 3000 Leuven			Leuven
732	Zwanenzangcantus	2022-05-04 18:00:00+00:00	2022-05-04T21:59:00Z	https://www.facebook.com/events/516464163352904	Cantus	Tiensestraat 51	Recup			Leuven
733	Jenevervoetbal	2022-05-05 18:00:00+00:00	2022-05-05T21:00:00Z	https://www.facebook.com/events/733861674639539	Sport	Raoul Claesstraat	Park De Bruul	50.88375043608411	4.695317195353685	Leuven
734	Historia's Red Tuesday	2022-05-03 18:00:00+00:00	2022-05-03T21:59:00Z	https://www.facebook.com/events/3012576598959922	Party	Blijde Inkomststraat 11	Fakbar Letteren	50.87728580424843	4.708111332354723	Leuven
735	Workshop: How-to podcast?	2022-05-04 18:00:00+00:00	2022-05-04T20:00:00Z	https://fb.me/e/1FoMorQT2	Workshop	 SW 02.07, Faculteit Sociale Wetenschappen, Van Evenstraat 2, 3000 Leuven 				Leuven
736	Upperdare Politika	2022-05-05 18:00:00+00:00	2022-05-05T20:00:00Z	https://fb.me/e/5jU9jG7na	Workshop	Ck, Politika Kaffee, Tiensestraat 55				Leuven
738	Lecture Wies De Graeve - Defending Human Rights around the World	2022-05-04 18:00:00+00:00	2022-05-04T20:00:00Z	https://www.facebook.com/events/1606144263093909?acontext=%7B%22event_action_history%22%3A[%7B%22mechanism%22%3A%22search_results%22%2C%22surface%22%3A%22search%22%7D]%2C%22ref_notif_type%22%3Anull%7D	International, Lecture	Tiensestraat 41	DV3 01.01			Leuven
741	Historia Onderwijsvergadering	2022-05-04 16:00:00+00:00	2022-05-04T18:00:00Z	https://www.facebook.com/events/1154075375407457	Education	Erasmusplein 2	MSI 1.28	50.87766829172209	4.707918213305651	Leuven
744	NFKantus: Moulin rouge edition	2022-05-16 18:00:00+00:00	2022-05-16T20:00:00Z		Cantus	Brusselsestraat 246, 3000 Leuven	Zamo			Leuven
745	Highland Games met Artifex	2022-05-10 16:00:00+00:00	2022-05-10T19:00:00Z	https://www.facebook.com/events/1016440149296434/?ref=newsfeed	Sport	Celestijnenlaan 100, 3001 Leuven	veldje voor 200K	50.86377826055055	4.678950355944811	Leuven
746	Historia's Marginale Avond	2022-05-10 18:00:00+00:00	2022-05-10T21:59:00Z	https://www.facebook.com/events/1074693273081398	Party	Blijde Inkomststraat 11	Fakbar Letteren	50.87730611339678	4.708100603518663	Leuven
748	Meesters der Misdaad	2022-05-19 18:30:00+00:00	2022-05-19T20:30:00Z	https://fb.me/e/1YK1ams79	Culture	Groot Begijnhof, 3000 Leuven	Sint-Jan-de-Doperkerk			Leuven
749	Alfa's Fossielenfuif	2022-05-16 20:00:00+00:00	2022-05-17T02:00:00Z	https://fb.me/e/4AEJv9Rbp	Party	Blijde Inkomststraat 11	Fakbar Letteren			Leuven
750	Historia's Fak on the Beach	2022-05-17 18:00:00+00:00	2022-05-17T21:59:00Z	https://www.facebook.com/events/715201342961986	Party	Blijde Inkomststraat 11	Fakbar Letteren	50.87729934368163	4.708111332354723	Leuven
752	COME	2022-05-29 09:00:00+00:00	2022-05-29T11:00:00Z	https://www.instagram.com	Education, International, First-year students	Kasteel arenberg 50	aula de molen			Leuven
753	Game of Eras [GEANNULEERD]	2022-05-18 11:00:00+00:00	2022-05-18T15:00:00Z	https://www.facebook.com/events/1499842623745944	Culture	Blijde Inkomststraat 11	Fakbar Letteren			Leuven
755	Eerstejaarspicknick	2022-05-22 22:00:00+00:00	2022-05-23T13:00:00Z	https://www.facebook.com/events/406672718124401	First-year students	Vaartstraat 165	Sluispark	50.88671506670234	4.700279282031237	Leuven
762	Makeathon: Ontwikkel voedingsproducten op basis van plantaardige eiwitten	2022-09-28 07:00:00+00:00	2022-09-29T16:00:00Z	https://www.generationfood.be/makeathon-2022	Education, Culinary, Workshop, Career	Herestraat 49, Leuven	UCLL - Campus Gasthuisberg	50.88069423239442	4.674336956439196	Leuven
766	Creator's Track	2022-10-11 15:00:00+00:00	2022-12-05T21:00:00Z	https://www.leuvensejongeondernemers.be/event/creators-track	Education, International, Workshop, Career	Stapelhuisstraat 13/15	maakleerplek	50.8865255525814	4.70493559688109	Leuven
767	Introductory rehearsal Leuven University Choir	2022-09-29 17:45:00+00:00	2022-09-29T20:30:00Z	https://fb.me/e/1PomrBxlO	Culture	Pater Damiaanplein 9	Hollands College			Leuven
768	Introductory rehearsal University Choir	2022-10-06 17:45:00+00:00	2022-10-06T20:30:00Z	https://fb.me/e/1M2dxPWLX	Culture	Pater Damiaanplein 9	Hollands College			Leuven
769	Eerstejaarsdrink 	2022-09-29 17:00:00+00:00	2022-09-29T20:00:00Z	https://fb.me/e/1SMwmh4SR	Party, First-year students	Sint-Michielsstraat 6 3000 Leuven	MTC 00.12	50.87694393225657	4.701792047915636	Leuven
781	White T-Shirt Party	2022-09-27 20:00:00+00:00	2022-09-28T02:00:00Z	https://fb.me/e/2cVRQg2SB	Party, First-year students	Brusselsestraat 246, Leuven	Doc's Bar			Leuven
787	Historia's First Tuesday	2022-09-27 18:00:00+00:00	2022-09-27T21:59:00Z	https://www.facebook.com/events/5582457975176851	Party	Blijde Inkomststraat 11	Fakbar Letteren	50.877363655935554	4.707869933543383	Leuven
788	[Uitgesteld] Ifese Lezing Austrofascisme	2022-10-10 18:00:00+00:00	2022-10-10T19:30:00Z	https://www.facebook.com/events/400827611995537	Lecture	Leuven	Leuven			Leuven
794	BR Launch	2022-10-04 16:30:00+00:00	2022-10-04T21:30:00Z	https://www.facebook.com/events/849326329388973	Career	Celestijnenlaan 200H, 3001 Leuven	Quadrivium	50.86301305447165	4.675120161471544	Leuven
795	International Picknick	2022-09-24 10:00:00+00:00	2022-09-24T12:00:00Z	https://fb.me/e/3vXWK9Qzc	International	Kardinaal Mercierlaan 94, 3001 Heverlee, Leuven	Arenbergkasteel	50.8628437593947	4.683692501483141	Leuven
803	Openingsavond	2022-09-25 20:00:00+00:00	2022-09-26T02:00:00Z	https://fb.me/e/2mnW0G7O4		Tervuursevest 60, Leuven	't Elixir	50.86973018700058	4.695676611361681	Leuven
805	Historia | Onthaal Kulak	2022-10-13 17:00:00+00:00	2022-10-13T20:00:00Z	https://www.facebook.com/events/5861989493813790	Party	Blijde Inkomststraat 11	Fakbar Letteren	50.87742119840343	4.7079503998138295	Leuven
807	Recruitment event: Join AIESEC in Leuven	2022-10-06 18:00:00+00:00	2022-10-06T20:00:00Z	https://bit.ly/joinaiesecleuven	Education, Culture, International	Edward Van Evenstraat 4 , 3000 Leuven	Hall Couvreur, AGORA Learning Center			Leuven
808	Entrepreneurship of Tomorrow - AFC - AFD - AFT	2022-10-10 17:00:00+00:00	2022-10-10T21:00:00Z	https://www.eventbrite.nl/e/entrepreneurship-of-tomorrow-info-event-by-afc-afd-aft-tickets-420143730207?fbclid=IwAR2ezNJ2lK4gtnoxY29iKzHnpCKA_dsam-3LVa_jTu9RpWoZ3zRKuFFKmY8	Education, International, Lecture, Career	Andreas Vesaliusstraat 11, 3000 Leuven	Aula Vesalius			Leuven
809	PeMe-namiddag LO&BW	2022-09-27 12:00:00+00:00	2022-09-27T15:00:00Z	https://www.facebook.com/events/1099226850734175?acontext=%7B%22event_action_history%22%3A[%7B%22surface%22%3A%22page%22%7D]%7D		Tervuursevest 101, Heverlee, Belgium 	Universitair Sportcentrum KULeuven			Leuven
810	OOV 1	2022-09-28 18:00:00+00:00	2022-09-28T20:00:00Z	https://www.facebook.com/events/603310628009549?acontext=%7B%22event_action_history%22%3A[%7B%22surface%22%3A%22page%22%7D]%7D	Education	Tervuursevest 101, 3001 Heverlee	GBDN 02.05			Leuven
811	Boer(in) zkt beest 2.0 Openingscantus	2022-09-29 18:00:00+00:00	2022-09-29T23:00:00Z	https://www.facebook.com/events/626088109097699?acontext=%7B%22event_action_history%22%3A[%7B%22surface%22%3A%22page%22%7D]%7D	Cantus	Van Evenstraat 2C Leuven, België	Alma 2			Leuven
812	Initation cantus	2022-10-03 17:00:00+00:00	2022-10-03T23:00:00Z	https://www.facebook.com/events/384836067190763/?acontext=%7B%22event_action_history%22%3A[%7B%22surface%22%3A%22page%22%7D]%7D	Cantus	Tervuursevest 60 3000 Leuven, België	De Waaiberg			Leuven
814	Doop	2022-10-13 12:00:00+00:00	2022-10-13T18:00:00Z	https://www.facebook.com/events/384444457234512?acontext=%7B%22event_action_history%22%3A[%7B%22surface%22%3A%22page%22%7D]%7D	First-year students	Tervuursevest 101, 3001 Heverlee	Rugbyvelden USC			Leuven
816	Historia | Grote Historia Infoavond	2022-10-04 16:00:00+00:00	2022-10-04T17:00:00Z	https://www.facebook.com/events/508235270642019	First-year students	Erasmusplein 2	MSI 00.18	50.87762428889822	4.707886026797472	Leuven
817	24-urenloop prep	2022-10-04 18:30:00+00:00	2022-10-04T19:30:00Z	https://www.facebook.com/events/655341732676411/?acontext=%7B%22event_action_history%22%3A[%7B%22extra_data%22%3A%22%22%2C%22mechanism%22%3A%22unknown%22%2C%22surface%22%3A%22page%22%7D%2C%7B%22extra_data%22%3A%22%22%2C%22mechanism%22%3A%22page_upcoming_events_card%22%2C%22surface%22%3A%22page%22%7D%2C%7B%22extra_data%22%3A%22%22%2C%22mechanism%22%3A%22surface%22%2C%22surface%22%3A%22create_dialog%22%7D]%2C%22ref_notif_type%22%3Anull%7D	Sport, International	Tervuursevest 101, 3001 Heverlee	Track & field course			Leuven
818	Blokhutavond	2022-09-27 18:30:00+00:00	2022-09-27T22:00:00Z	https://fb.me/e/30wNlWk8w	Party, First-year students	Oude markt	Blokhut			Leuven
835	PeMe-Kickoff	2022-10-03 18:00:00+00:00	2022-10-03T21:00:00Z	https://fb.me/e/1L40dB1m1		Studentenwijk Arenberg 6, 3001 Leuven, België				Leuven
838	Open repetitie koor Cantores	2022-10-10 17:25:00+00:00	2022-10-10T19:30:00Z	https://www.facebook.com/events/2023229847877716/2023429544524413/	Cantus, Culture	Erasmusplein 2, 3000 Leuven	Mgr Sencie Instituut, Aula 00.08	50.87759721021673	4.707810924945055	Leuven
839	Open repetitie koor Cantores	2022-10-17 17:25:00+00:00	2022-10-17T19:25:00Z	https://www.facebook.com/events/2023229847877716/2023429544524413/	Cantus, Culture	Erasmusplein 2, 3000 Leuven	Mgr Sencie Instituut, Aula 00.08	50.87759721021673	4.707810924945055	Leuven
840	Historia | Openingscantus	2022-10-05 18:00:00+00:00	2022-10-05T21:59:00Z	https://www.facebook.com/events/682342822794694	Cantus	Tiensestraat 51	Recup	50.87722826161349	4.704785393176256	Leuven
841	Get2Know BEST Leuven	2022-10-04 18:00:00+00:00	2022-10-04T20:00:00Z	https://www.facebook.com/events/831159787894613/?acontext=%7B%22source%22%3A%2229%22%2C%22ref_notif_type%22%3A%22event_calendar_create%22%2C%22action_history%22%3A%22null%22%7D&notif_id=1664300629328652&notif_t=event_calendar_create&ref=notif	Education, International	Kasteelpark Arenberg 41, 3001 Leuven	BEST Leuven Office	50.86109659829485	4.68320970386046	Leuven
842	Historia | Boerenfuif	2022-10-04 18:00:00+00:00	2022-10-04T21:59:00Z	https://www.facebook.com/events/5738856582812506	Party	Blijde Inkomststraat 11	Fakbar Letteren	50.87738058019818	4.707886026797472	Leuven
843	MALZ Grand reopening 	2022-10-04 18:00:00+00:00	2022-10-05T00:00:00Z	https://fb.me/e/5Gg0TBipE	Party, International, First-year students	Brusselsestraat 51, 3000 Leuven	MALZ	50.879993612606114	4.698251532015978	Leuven
844	BIOS: Picknick	2022-09-29 11:00:00+00:00	2022-09-29T13:00:00Z	https://fb.me/e/33vsouN3s	Culinary	Kardinaal Mercierlaan 94 	Arenberg kasteel			Leuven
846	Peter en Meter avond	2022-10-04 18:00:00+00:00	2022-10-04T20:00:00Z	https://fb.me/e/2Pgo7cfRQ	First-year students	Hogeschoolplein, 3000 Leuven				Leuven
849	Historia | Cocktailavond eerstejaars	2022-10-06 19:00:00+00:00	2022-10-06T21:00:00Z	https://www.facebook.com/events/1076872933191420	First-year students	Blijde Inkomsstraat 11	Fakbar Letteren (Historia Perma)	50.87737719534616	4.7078752979614125	Leuven
851	Pool night	2022-10-04 17:30:00+00:00	2022-10-04T21:00:00Z	https://fb.me/e/1QN4pjoXC	Sport	Parkstraat 40, 3000 Leuven	Downtown Jack			Leuven
852	Wiesinitiatie/avond	2022-10-12 18:00:00+00:00	2022-10-12T21:59:00Z	https://fb.me/e/25I7aK36X		Tiensestraat 41	De Valk 3, Lokaal 01.10	50.8778070695868	4.705407665667711	Leuven
853	Infoavond Babylontoneel	2022-10-04 18:30:00+00:00	2022-10-04T19:30:00Z	https://fb.me/e/2iqoO7Srl	Culture	Blijde Inkomststraat 11, 3000 Leuven	Perma Babylon (in Fakbar Letteren)			Leuven
854	Wekelijks looprondje	2022-10-05 15:00:00+00:00	2022-10-05T15:30:00Z	https://fb.me/e/1TKJdcyY0	Sport	MSI Leuven	bareel MSI			Leuven
855	Fruit snacks!	2022-10-06 11:00:00+00:00	2022-10-06T14:00:00Z	https://fb.me/e/1XKXW9PRo	Culinary	Erasmusplein 2, 3000 Leuven	MSI			Leuven
856	Roaring 20's party	2022-10-06 18:00:00+00:00	2022-10-07T02:00:00Z	https://fb.me/e/1Z9AgcDqU	Party	Blije Inkomststraat 11, 3000 Leuven	Fakbar Letteren			Leuven
857	Peter- en meteravond	2022-10-12 19:00:00+00:00	2022-10-12T21:00:00Z	https://fb.me/e/2n5R1OALN	First-year students	Erasmusplein 2, 3000 Leuven	MSI 00.08			Leuven
858	Infomoment cultuurreis	2022-10-13 18:00:00+00:00	2022-10-13T19:00:00Z	https://fb.me/e/2DAmsSfis	Culture	Erasmusplein 2, 3000 Leuven	MSI 00.08			Leuven
859	Glow in the dark party	2022-10-13 18:00:00+00:00	2022-10-14T02:00:00Z	https://fb.me/e/2UPBcCRm0	Party	Blijde Inkomststraat 11, 3000 Leuven	FAKbar letteren			Leuven
860	Opening Babylons Interuniversitary Literary Price	2022-10-17 18:00:00+00:00	2022-10-17T21:00:00Z	https://fb.me/e/8eZb9ESKk	Culture	Monseigneur Ladeuzeplein 12, 3000 Leuven	Boekarest Leuven			Leuven
861	Eerstejaarspicknick	2022-10-18 11:00:00+00:00	2022-10-18T12:00:00Z	https://fb.me/e/26PHARZhj	First-year students	Vlamingenstraat, 3000 Leuven	Sint-Donatuspark			Leuven
863	Infoavond Landjuweel	2022-10-13 19:00:00+00:00	2022-10-13T20:00:00Z	https://fb.me/e/2WvtAObrd	Culture	Erasmusplein 2, 3000 Leuven	MSI 00.08			Leuven
867	Let's Walk About Mental Health	2022-10-12 12:00:00+00:00	2022-10-12T20:00:00Z	https://fb.me/e/2i4wGqQrY		Leuven centrum	Leuven			Leuven
868	Acquaintance Rehearsal Arenberg Orchestra	2022-09-29 17:45:00+00:00	2022-10-03T21:00:00Z	https://forms.gle/NGhRxKFKEYBJqJAA6	Culture	Parkstraat 45, 3000 Leuven	Alma 2	50.87383989060315	4.703412102160631	Leuven
869	Acquaintance Rehearsal Arenberg Orchestra	2022-09-29 17:45:00+00:00	2022-09-29T21:00:00Z	https://forms.gle/NGhRxKFKEYBJqJAA6	Culture	Parkstraat 45, 3000 Leuven	Alma 2	50.87383989060315	4.703412102160631	Leuven
870	Acquaintance Rehearsal Arenberg Orchestra	2022-10-03 17:45:00+00:00	2022-10-03T21:00:00Z	https://forms.gle/NGhRxKFKEYBJqJAA6	Culture	Parkstraat 45, 3000 Leuven	Alma 2	50.87383989060315	4.703412102160631	Leuven
871	24-urenloop prep	2022-10-06 18:30:00+00:00	2022-10-20T19:30:00Z	https://www.facebook.com/events/483807030133257/483807046799922?acontext=%7B%22event_action_history%22%3A[%7B%22surface%22%3A%22page%22%7D]%7D	Sport	Tervuursevest 101, 3001 Heverlee	Track and field course			Leuven
872	24-urenloop prep	2022-10-06 18:30:00+00:00	2022-10-06T19:30:00Z	https://www.facebook.com/events/483807030133257/483807046799922?acontext=%7B%22event_action_history%22%3A[%7B%22surface%22%3A%22page%22%7D]%7D	Sport	Tervuursevest 101, 3001 Heverlee	Track and field course			Leuven
873	24-urenloop prep	2022-10-11 18:30:00+00:00	2022-10-11T19:30:00Z	https://www.facebook.com/events/483807030133257/483807046799922?acontext=%7B%22event_action_history%22%3A[%7B%22surface%22%3A%22page%22%7D]%7D	Sport	Tervuursevest 101, 3001 Heverlee	Track and field course			Leuven
874	24-urenloop prep	2022-10-13 18:30:00+00:00	2022-10-13T19:30:00Z	https://www.facebook.com/events/483807030133257/483807046799922?acontext=%7B%22event_action_history%22%3A[%7B%22surface%22%3A%22page%22%7D]%7D	Sport	Tervuursevest 101, 3001 Heverlee	Track and field course			Leuven
875	24-urenloop prep	2022-10-18 18:30:00+00:00	2022-10-18T19:30:00Z	https://www.facebook.com/events/483807030133257/483807046799922?acontext=%7B%22event_action_history%22%3A[%7B%22surface%22%3A%22page%22%7D]%7D	Sport	Tervuursevest 101, 3001 Heverlee	Track and field course			Leuven
876	24-urenloop prep	2022-10-20 18:30:00+00:00	2022-10-20T19:30:00Z	https://www.facebook.com/events/483807030133257/483807046799922?acontext=%7B%22event_action_history%22%3A[%7B%22surface%22%3A%22page%22%7D]%7D	Sport	Tervuursevest 101, 3001 Heverlee	Track and field course			Leuven
879	How to optimize sports performance through nutrition // 6D info sessie	2022-10-10 16:30:00+00:00	2022-10-10T18:00:00Z	https://www.facebook.com/events/680134826373455?acontext=%7B%22event_action_history%22%3A[%7B%22extra_data%22%3A%22%22%2C%22mechanism%22%3A%22unknown%22%2C%22surface%22%3A%22page%22%7D%2C%7B%22extra_data%22%3A%22%22%2C%22mechanism%22%3A%22surface%22%2C%22surface%22%3A%22permalink%22%7D%2C%7B%22extra_data%22%3A%22%22%2C%22mechanism%22%3A%22surface%22%2C%22surface%22%3A%22edit_dialog%22%7D]%2C%22ref_notif_type%22%3Anull%7D	Sport, Culinary	Parkstraat 51, 3000 Leuven	01.030 aula Jean Monnet 01.30			Leuven
884	Thaise Rode Curry	2022-10-12 10:30:00+00:00	2022-10-12T12:00:00Z	https://fb.me/e/2WpafUx8p	Culinary	Kasteelpark Arenberg 41, Heverlee, Belgium	Thermotechnisch Instituut	50.86122526743058	4.683563755450426	Leuven
898	Brown Bag Lunch: Student-entrepreneurship, what's in a name?	2022-10-27 11:00:00+00:00	2022-10-27T12:00:00Z	https://www.eventbrite.be/e/brown-bag-lunch-student-entrepreneurship-whats-in-a-name-tickets-404028479057	Education, International, Workshop, Lecture, Career	Naamsestraat 11-13	Studio Start	50.87793569260453	4.700810359416185	Leuven
899	Danslessen VTK x LBK	2022-10-13 18:00:00+00:00	2022-11-17T21:00:00Z	https://on.vtk.be/danslessen_swing	Sport	Hertogstraat 178, 3001 Heverlee				Leuven
900	Danslessen VTK x LBK	2022-10-13 18:00:00+00:00	2022-10-13T19:00:00Z	https://on.vtk.be/danslessen_swing	Sport	Hertogstraat 178, 3001 Heverlee				Leuven
901	Danslessen VTK x LBK	2022-10-20 18:00:00+00:00	2022-10-20T19:00:00Z	https://on.vtk.be/danslessen_swing	Sport	Hertogstraat 178, 3001 Heverlee				Leuven
902	Danslessen VTK x LBK	2022-10-27 18:00:00+00:00	2022-10-27T19:00:00Z	https://on.vtk.be/danslessen_swing	Sport	Hertogstraat 178, 3001 Heverlee				Leuven
903	Danslessen VTK x LBK	2022-11-03 19:00:00+00:00	2022-11-03T20:00:00Z	https://on.vtk.be/danslessen_swing	Sport	Hertogstraat 178, 3001 Heverlee				Leuven
904	Danslessen VTK x LBK	2022-11-17 19:00:00+00:00	2022-11-17T21:00:00Z	https://on.vtk.be/danslessen_swing	Sport	Hertogstraat 178, 3001 Heverlee				Leuven
905	Brown Bag Lunch: Tell us what you want to learn about!	2022-12-07 12:00:00+00:00	2022-12-07T13:00:00Z	https://www.eventbrite.be/e/brown-bag-lunch-tell-us-what-you-want-to-learn-about-tickets-415878492767	Education, International, Lecture, Career	Naamsestraat 11-13	Studio Start	50.8779530840234	4.700807244252898	Leuven
907	Brown Bag Lunch: How do I convince others of my idea?	2022-11-16 12:00:00+00:00	2022-11-16T13:00:00Z	https://www.eventbrite.be/e/brown-bag-lunch-how-do-i-convince-others-of-my-idea-tickets-407463814237	Education, International, Workshop, Lecture, Career	Naamsestraat 11-13	Studio Start	50.87792892298088	4.700799630580126	Leuven
908	Kick Off Students For Solidarity 	2022-10-06 18:00:00+00:00	2022-10-06T21:59:00Z	https://fb.me/e/3ySLCvd87	Culture, Charity, Party	Joris Helleputteplein 2, 3000 Leuven	Wereldcafé Coop			Leuven
909	Infoavond doop	2022-10-11 18:00:00+00:00	2022-10-11T20:00:00Z	https://fb.me/e/30mTdYLey	First-year students	Erasmusplein 2, 3000 Leuven	MSI 00.08			Leuven
918	Massaverkoop	2022-10-04 07:00:00+00:00	2022-10-06T16:00:00Z	https://fb.me/e/58wTOHfUa	Education	parkstraat 45, Leuven, AV 91.07	Secri lokaal Politika 			Leuven
919	Fabartocht EJW Politika 	2022-10-11 19:00:00+00:00	2022-10-11T21:59:00Z	https://fb.me/e/32mISpzvV	Party	Tiensestraat 55, Leuven	Politika Kaffee			Leuven
920	Cocktailworkshop	2022-10-12 18:00:00+00:00	2022-10-12T20:00:00Z	https://fb.me/e/2hDeQneJA	Workshop	Tiensestraat 55, Leuven	CK, zaaltje boven Politika Kaffee			Leuven
921	Poolnight 	2022-10-18 18:00:00+00:00	2022-10-18T20:00:00Z	https://fb.me/e/eCSP7mFhl	Workshop	Parktstraat 40, Leuven	Downtown Jack 			Leuven
923	Career Brunch I	2022-10-13 09:00:00+00:00	2022-10-13T13:30:00Z	https://ekonomika.be/matching-event/career-brunch-i/	Career	Naamsestraat 22	Universiteitshallen	50.87777322136522	4.700515316424547	Leuven
924	LE(J)ON KICK OFF: Trap het ondernemend academiejaar af	2022-10-19 16:30:00+00:00	2022-10-19T21:00:00Z	https://www.leuvensejongeondernemers.be/event/kickoff	Education, International, Workshop, Lecture, Career, First-year students	Leopold Vanderkelenstraat 28, 3000 Leuven	Museum M	50.87895789449189	4.704806850848375	Leuven
925	Openingsconferentie: moeten we wakker liggen van de opkomst van extreemrechts?	2022-10-18 18:00:00+00:00	2022-10-18T20:30:00Z	https://fb.me/e/2lB7F8keC	Education, Culture, Lecture	Erasmusplein 2, 3000 Leuven	MSI1 00.28	50.87768521587402	4.707907484469591	Leuven
926	Historia | Red Flag Party	2022-10-11 18:00:00+00:00	2022-10-11T21:59:00Z	https://www.facebook.com/events/821015635578694	Party	Blijde Inkomststraat 11	Fakbar Letteren	50.87737719534616	4.707886026797472	Leuven
931	Historia | Infoavond Toneel	2022-10-12 18:00:00+00:00	2022-10-12T20:00:00Z	https://www.facebook.com/events/776155406793472	Culture, Workshop	Erasmusplein 2	MSI 02.18	50.87768521587409	4.707886026797472	Leuven
932	Historia | Cocktailavond ouderejaars	2022-10-12 19:00:00+00:00	2022-10-12T21:59:00Z	https://www.facebook.com/events/485962493432435	Party	Blijde Inkomststraat 11	Historia Perma	50.87739411960386	4.707918213305651	Leuven
933	Eersteplaatscantus	2022-10-17 15:30:00+00:00	2022-10-17T20:00:00Z	https://www.facebook.com/events/827997281528996?acontext=%7B%22event_action_history%22%3A[%7B%22surface%22%3A%22page%22%7D]%7D	Cantus	Steengroevelaan 3, 3001 Heverlee	Tent Alma 3			Leuven
934	Building Empires: The importance of Finance	2022-10-18 18:00:00+00:00	2022-10-18T21:30:00Z	https://buildingempirescapitant.eventbrite.be		Andreas Vesaliusstraat 11, 3000 Leuven	Aula Vesalius	50.87527515475254	4.70843319743651	Leuven
935	Pool night 2.0 | KOCO Letteren	2022-10-12 18:00:00+00:00	2022-10-12T21:00:00Z	https://fb.me/e/1R9JCCb8g	International	Parkstraat 40 3000 Leuven	Downtown Jack			Leuven
937	24 urenloop	2022-10-25 18:00:00+00:00	2022-10-26T18:00:00Z	https://www.facebook.com/events/846829579689643/?acontext=%7B%22event_action_history%22%3A[%7B%22surface%22%3A%22page%22%7D]%7D	Sport	Tervuursevest 101, 3001 Heverlee	Blue corner (GBDN)			Leuven
938	24 urenloop	2022-10-25 18:00:00+00:00	2022-10-26T18:00:00Z	https://fb.me/e/2WlXCJHrU		Tervuursestraat 101, Leuven	Universitair sportcentrum			Leuven
939	Plasmaweek Leuven	2022-10-17 06:30:00+00:00	2022-10-20T18:00:00Z	https://www.facebook.com/events/1061712297868932/	Charity	Herestraat 49, Leuven	Donorcentrum Leuven	50.88047761677326	4.671273873744188	Leuven
940	Women in Tech gala powered by McKinsey & Company	2022-10-20 17:00:00+00:00	2022-10-20T21:59:00Z	https://www.aftleuven.be/events/women-in-tech/	Lecture, Career	Naamsestraat 22, Leuven	Universiteitshallen KU Leuven			Leuven
941	Infoavond General Members BeMSA Leuven	2022-10-11 18:00:00+00:00	2022-10-11T19:00:00Z	https://fb.me/e/9B7WdVQ8e	Education, International, Career, First-year students	College van Premonstreit, Naamsestraat 61 | CPR 01.43	College van Premonstreit	50.87554595435238	4.70070843547362	Leuven
945	OOV 2	2022-10-12 18:15:00+00:00	2022-10-12T19:15:00Z	https://www.facebook.com/events/1170928553500617?acontext=%7B%22event_action_history%22%3A[%7B%22surface%22%3A%22page%22%7D]%7D	Education	Tervuursevest 101, 3001 Heverlee	TSH 02.320			Leuven
948	Halloween pumpkin soup sale! 	2022-10-19 09:00:00+00:00	2022-10-19T12:00:00Z	https://fb.me/e/1U8KF2rxg	International, Culinary, First-year students	Erasmushuis 2, 3000 Leuven	MSI			Leuven
949	Oktoberfest 	2022-10-20 18:00:00+00:00	2022-10-21T02:00:00Z	https://fb.me/e/2g3XdqmHe	Party	Blijde Inkomststraat 11, 3000 Leuven	Fakbar Letteren			Leuven
951	Apolloon try outs	2022-10-13 13:30:00+00:00	2022-10-13T14:30:00Z	https://www.facebook.com/events/642622747249206	Sport	Tervuursevest 101, 3001 Heverlee	Track and field course			Leuven
952	Historia | Onderwijsvergadering	2022-10-18 16:00:00+00:00	2022-10-18T18:00:00Z	https://www.facebook.com/events/481938727213296	Education	Erasmusplein 2	MSI 00.14	50.87765136756394	4.707896755633532	Leuven
953	Historia | Infomoment cultuurreis	2022-10-24 18:00:00+00:00	2022-10-24T20:00:00Z	https://www.facebook.com/events/1772338143123526	Culture	Erasmusplein 2	MSI 01.28	50.87765813722795	4.707907484469591	Leuven
954	Historia | Peter- en meteravond	2022-10-19 18:00:00+00:00	2022-10-19T20:00:00Z	https://www.facebook.com/events/1111082453105940	First-year students	Ladeuzeplein		50.87836217691265	4.70693116038817	Leuven
961	Initiatieavond Doop	2022-10-20 18:00:00+00:00	2022-10-20T20:00:00Z	https://fb.me/e/3GCNfpQTh	First-year students	Erasmusplein 2, 3000 Leuven	MSI 00.08			Leuven
963	Historia | Audities toneel	2022-10-18 18:00:00+00:00	2022-10-18T20:00:00Z	https://www.facebook.com/events/690726255255600	Culture	Erasmusplein 2	MSI 02.18	50.877712294504406	4.707832382617174	Leuven
964	Letteren Full House: to the Fak and Beyond	2022-10-18 17:30:00+00:00	2022-10-19T02:00:00Z	https://www.facebook.com/events/479838757517809?acontext=%7B%22event_action_history%22%3A[%7B%22extra_data%22%3A%22%22%2C%22mechanism%22%3A%22unknown%22%2C%22surface%22%3A%22newsfeed%22%7D%2C%7B%22extra_data%22%3A%22%22%2C%22mechanism%22%3A%22surface%22%2C%22surface%22%3A%22permalink%22%7D%2C%7B%22extra_data%22%3A%22%22%2C%22mechanism%22%3A%22surface%22%2C%22surface%22%3A%22edit_dialog%22%7D]%2C%22ref_notif_type%22%3Anull%7D	Party	Blijde Inkomststraat 11 3000 Leuven	Fakbar Letteren			Leuven
966	Audities / infomoment aMUZEment 2022	2022-10-20 18:00:00+00:00	2022-10-20T20:00:00Z	https://fb.me/e/3FOZq8whe	Culture	50.877837, 4.708120	MSI 01.23			Leuven
967	Kattenfeest	2022-10-17 19:00:00+00:00	2022-10-18T02:00:00Z	https://fb.me/e/2229WxRQN	Party	Blijde Inkomststraat 11	Fakbar Letteren			Leuven
968	Lezing: Kanker raakt iedereen	2022-10-20 18:00:00+00:00	2022-10-20T20:00:00Z	https://fb.me/e/1Uyka872v	Lecture	Maria-Theresiastraat (Kleine aula) 	Maria-Theresiacollege			Leuven
969	Historia | The Eerste Bachelor | Initiatiemoment	2022-10-20 17:00:00+00:00	2022-10-20T20:00:00Z	https://www.facebook.com/events/455855029733869	Workshop, First-year students	Erasmusplein 2	MSI 00.20 en 00.28	50.87764121306618	4.7078752979614125	Leuven
970	Infosessie exchanges	2022-10-19 18:00:00+00:00	2022-10-20T19:00:00Z	https://fb.me/e/324oCFbh7	Education, International, Career	MSI1 00.28 Mgr. Sencie Instituut | Erasmusplein 2, Leuven	Mgr. Sencie Instituut			Leuven
971	Food sell: croques	2022-11-08 12:00:00+00:00	2022-11-08T14:30:00Z	https://fb.me/e/2mPt7uMtr	Culture, Culinary	Erasmusplein 2, 3000 Leuven	MSI (inkomhal)			Leuven
972	VRG & Crimen @24urenloop	2022-10-25 18:00:00+00:00	2022-10-26T18:00:00Z	https://www.facebook.com/events/3201942456695670/?acontext=%7B%22event_action_history%22%3A[%7B%22surface%22%3A%22page%22%7D]%7D	Sport	Tervuursevest 101, Heverlee, België	Universitair Sportcentrum KU Leuven			Leuven
973	Massatraining	2022-10-20 18:30:00+00:00	2022-10-20T19:30:00Z	https://www.facebook.com/events/463654908910257/?acontext=%7B%22event_action_history%22%3A[%7B%22surface%22%3A%22page%22%7D]%7D	Sport	Tervuursevest 101, 3001 Heverlee	Track and field course			Leuven
974	Waffolloon	2022-10-20 18:30:00+00:00	2022-10-20T20:00:00Z	https://www.facebook.com/events/1715321885494417/?acontext=%7B%22event_action_history%22%3A[%7B%22surface%22%3A%22page%22%7D]%7D	Culinary	Tervuursevest 101, 3001 Heverlee	GBDN			Leuven
979	Doop Wina	2022-10-19 11:00:00+00:00	2022-10-19T20:00:00Z	https://www.wina.be/nl/evenementen/2022-schachtendoop/		Studentenwijk Arenberg 4/0	Winagang			Leuven
980	De Coster wat kostcantus (doopcantus)	2022-10-20 18:00:00+00:00	2022-10-20T21:00:00Z	https://www.wina.be/nl/evenementen/2022-doopcantus/	Cantus	Jules Vandenbemptlaan 2, 3001 Leuven	Pavo			Leuven
981	Peetouderavond 	2022-10-20 18:00:00+00:00	2022-10-20T20:00:00Z	https://fb.me/e/2ljtRtJZu	First-year students	Parkstraat 45, 3000 Leuven 	Max Weber			Leuven
987	H.E.R.P. Gastlezing & Hands-on ervaring	2022-10-17 14:15:00+00:00	2022-10-17T16:15:00Z	https://fb.me/e/2jsnve7Qr	Lecture	Naamsestraat 59, 3000 Leuven	Zoölogisch Instituut	50.87597923043922	4.701287792620836	Leuven
988	BIOS openingscantus: zat met de kat	2022-10-19 18:00:00+00:00	2022-10-19T20:00:00Z	https://fb.me/e/3OaI4SpHG	Cantus	Doc's Bar Leuven	Zamo			Leuven
989	BIOS Karaoke Night	2022-10-18 18:00:00+00:00	2022-10-18T22:00:00Z	https://fb.me/e/5XDw6Uzke	Party	Oude Markt 49, 3000 Leuven	Blokhut	50.87852464609862	4.699581907687365	Leuven
991	Halloweencantus	2022-10-31 18:00:00+00:00	2022-11-01T00:00:00Z	https://www.facebook.com/events/465851302276451?acontext=%7B%22event_action_history%22%3A[%7B%22extra_data%22%3A%22%22%2C%22mechanism%22%3A%22surface%22%2C%22surface%22%3A%22create_dialog%22%7D%2C%7B%22extra_data%22%3A%22%22%2C%22mechanism%22%3A%22surface%22%2C%22surface%22%3A%22permalink%22%7D%2C%7B%22extra_data%22%3A%22%22%2C%22mechanism%22%3A%22surface%22%2C%22surface%22%3A%22edit_dialog%22%7D]%2C%22ref_notif_type%22%3Anull%7D	Cantus	Tervuursevest 60, 3000 Leuven	Waaiberg			Leuven
992	Bloedserieus @ 24 urenloop	2022-10-25 17:00:00+00:00	2022-10-26T18:00:00Z	https://www.facebook.com/events/805007997367532/	Sport, Charity, Culinary	Universitair sportcentrum, Leuven	Universitair sportcentrum KULeuven	50.869510134989376	4.692736910281359	Leuven
993	Psycho @24 urenloop	2022-10-25 18:00:00+00:00	2022-10-26T18:00:00Z	https://fb.me/e/2YzWdFE2t	Sport	Tervuursevest, Heverlee	Atletiekpiste Sportkot			Leuven
994	Fall brunch	2022-10-29 09:00:00+00:00	2022-10-29T11:00:00Z	https://fb.me/e/29jA9vZy0	International	Naamsestraat 14, 3000 Leuven	Nosh			Leuven
995	Smart drinking training bus	2022-10-20 10:00:00+00:00	2022-10-20T14:00:00Z	https://fb.me/e/3jk1CpCQ3	Education, Party, International, First-year students	Herbert Hooverplein				Leuven
996	VRG Jobbeurs 2022	2022-11-22 10:00:00+00:00	2022-11-22T15:00:00Z	https://fb.me/e/2gRc7ZGnd	Career	Naamsestraat 22 Leuven 3000	Jubileumzaal			Leuven
997	OOV 3	2022-10-27 18:15:00+00:00	2022-10-27T19:15:00Z	https://www.facebook.com/events/3256959541192496?acontext=%7B%22event_action_history%22%3A[%7B%22extra_data%22%3A%22%22%2C%22mechanism%22%3A%22unknown%22%2C%22surface%22%3A%22page%22%7D%2C%7B%22extra_data%22%3A%22%22%2C%22mechanism%22%3A%22surface%22%2C%22surface%22%3A%22permalink%22%7D%2C%7B%22extra_data%22%3A%22%22%2C%22mechanism%22%3A%22surface%22%2C%22surface%22%3A%22edit_dialog%22%7D]%2C%22ref_notif_type%22%3Anull%7D	Education	Tervuursevest 100, 3001 Heverlee	TSH 02.320			Leuven
998	Historia | Doop	2022-10-27 16:30:00+00:00	2022-10-27T21:59:00Z	https://www.facebook.com/events/1747105455656676	Party, First-year students	Blijde Inkomststraat 11	Fakbar Letteren	50.87748212564476	4.7080255016662464	Leuven
999	Data Science & AI Career Talk	2022-10-24 18:00:00+00:00	2022-10-24T20:00:00Z	https://www.eventbrite.be/e/data-science-ai-emergent-career-talk-tickets-439943882997?aff=quiver	Education, Lecture, Career	Andreas Vesaliusstraat 13	Groep T (aula 00.2.02)	50.87506528398047	4.707596348223864	Leuven
1000	Piraterij is een misdrijf-cantus	2022-10-31 19:00:00+00:00	2022-10-31T23:00:00Z	https://www.wina.be/nl/evenementen/2022-cantus/	Cantus	Jules Vandenbemptlaan 2, 3001 Heverlee	Pavo			Leuven
1002	Bloedserieusweek Leuven	2022-11-14 07:30:00+00:00	2022-11-17T19:00:00Z	https://www.facebook.com/events/639981311136870/	Charity	Leuven				Leuven
1004	Saints and sinners TD	2022-11-02 21:00:00+00:00	2022-11-03T04:00:00Z	https://www.facebook.com/events/442528264573964?acontext=%7B%22source%22%3A%2229%22%2C%22ref_notif_type%22%3A%22plan_user_joined%22%2C%22action_history%22%3A%22null%22%7D&notif_id=1666462345648520&notif_t=plan_user_joined&ref=notif	Party	Kiekenstraat 6, 3000 Leuven	Rumba & co			Leuven
1007	Cocktail workshop	2022-11-02 19:00:00+00:00	2022-11-02T21:00:00Z	https://www.wina.be/en/evenementen/cocktail-workshop/	Culinary	Studentenwijk Arenberg 4/0	Winaliving			Leuven
1008	Get a Taste of Engage	2022-11-09 10:30:00+00:00	2022-11-09T13:30:00Z	https://fb.me/e/32RudIWoL	Education, Charity	Tiensestraat 41	't Academische Kwartier			Leuven
1009	Get a Taste of Engage	2022-11-16 11:30:00+00:00	2022-11-16T14:30:00Z	https://fb.me/e/3Ho4MbbPX	Education, Charity	Andreas Vesaliusstraat 13	Atrium, Group T			Leuven
1010	Get a Taste of Engage	2022-11-23 09:00:00+00:00	2022-11-23T12:00:00Z	https://fb.me/e/3U1T9hHAW	Education, Charity	Herestraat 49	Onderwijs & Navorsing 1 (hall)			Leuven
1011	Get a Taste of Engage	2022-11-30 14:30:00+00:00	2022-11-30T17:30:00Z	https://fb.me/e/2SRZwR0in	Education, Charity	Erasmusplein 2	MSI entrance hall			Leuven
1012	Historia | Halloween introductiecantus	2022-11-02 19:00:00+00:00	2022-11-02T22:59:00Z	https://www.facebook.com/events/1141085713186164/	Cantus, First-year students	Tiensestraat 51	Recup	50.87721810702344	4.704806850848375	Leuven
1013	Bamischijven met EBW	2022-11-02 18:00:00+00:00	2022-11-02T20:00:00Z	https://fb.me/e/3BMy8tHqM	Party, Culinary, First-year students	Blijde Inkomststraat 11, 3000 Leuven	Perma Babylon (in Fak Letteren)			Leuven
1014	Cleantech challenge kick-off	2022-11-08 18:00:00+00:00	2022-11-08T22:00:00Z	https://cleantechchallenge.be/register/	Education, International, Workshop, Career	Andreas Vesaliusstraat 13, Leuven	Campus groep T	50.874841872119774	4.707961128649889	Leuven
1015	Seminar  “Feeling Anxious in an uncertain world”	2022-11-25 18:00:00+00:00	2022-11-25T20:00:00Z	https://www.kuleuven.be/stuvo/studieloopbaanbegeleiding/professionals/vorming/kalender/anxious	International, Lecture, Ukraine	Edward van Evenstraat 4, 3000 Leuven	Leercentrum Agora	50.873745107452585	4.70394854396361	Leuven
1017	Hope for Kids - Benefietconcert	2022-12-01 18:30:00+00:00	2022-12-01T23:00:00Z	https://bit.ly/HopeforKids_UHO	Culture, Charity	Charles Deberiotstraat 24, 3000 Leuven	Aula Pieter De Somer			Leuven
1018	Volunteer Abroad with AIESEC	2022-11-15 19:00:00+00:00	2022-11-15T21:00:00Z	https://bit.ly/getinvolvedAIESEC	Education, International	Andreas Vesaliusstraat 13, 3000 Leuven	Campus Group T (Atrium)			Leuven
1019	Historia | Kerstmarktfeestje	2022-11-01 19:00:00+00:00	2022-11-01T22:59:00Z	https://www.facebook.com/events/1248712505701893	Party	Blijde Inkomststraat 11	Fakbar Letteren	50.87763105856609	4.707886026797472	Leuven
1021	Meet the future evening	2022-11-09 18:30:00+00:00	2022-11-09T20:30:00Z	https://www.facebook.com/events/844052510289609?ref=newsfeed	Education, Lecture, Career	Kasteelpark Arenberg 20 , 3001 Heverlee	Aula Jozef Heuts - LBI 00.215			Leuven
1023	Schachtenconvent	2022-11-07 18:00:00+00:00	2022-11-07T20:00:00Z	https://www.wina.be/nl/evenementen/2022-convent/	Education, First-year students	Campus Arenberg	200S, 00.03			Leuven
1025	Eatcantus	2022-11-06 16:30:00+00:00	2022-11-06T21:00:00Z	https://www.facebook.com/events/518876336918798/?acontext=%7B%22event_action_history%22%3A[%7B%22surface%22%3A%22page%22%7D]%7D	Cantus, Culinary	Tervuursevest 60, 3000 Leuven	De Sportzak			Leuven
1026	Kaboutercantus	2022-11-07 18:00:00+00:00	2022-11-08T00:00:00Z	https://www.facebook.com/events/442209038043323/?acontext=%7B%22event_action_history%22%3A[%7B%22surface%22%3A%22page%22%7D]%7D	Cantus	Tiensestraat 51, 3000 Leuven	Recup			Leuven
1027	Bier voor morgen vroeg	2022-11-08 07:30:00+00:00	2022-11-08T12:00:00Z	https://www.facebook.com/events/1152580175445555?acontext=%7B%22event_action_history%22%3A[%7B%22surface%22%3A%22page%22%7D]%7D	Cantus	Tervuursevest 60, 3000 Leuven	De Sportzak			Leuven
1028	Maffiacantus	2022-11-08 18:00:00+00:00	2022-11-09T00:00:00Z	https://www.facebook.com/events/1310878713011864/?acontext=%7B%22event_action_history%22%3A[%7B%22surface%22%3A%22page%22%7D]%7D	Cantus	Tervuursevest 60, 3000 Leuven	Waaiberg			Leuven
1029	Race to the Io vivat (Sutnac)	2022-11-09 16:30:00+00:00	2022-11-09T21:00:00Z	https://www.facebook.com/events/781790949652586/?acontext=%7B%22event_action_history%22%3A[%7B%22surface%22%3A%22page%22%7D]%7D	Cantus	Tervuursevest 60, 3000 Leuven	De Sportzak			Leuven
1030	Gekke brillencantus	2022-11-10 18:00:00+00:00	2022-11-11T00:00:00Z	https://www.facebook.com/events/524198969180036/?ref=newsfeed	Cantus	Kardinaal Mercierlaan 46, 3001 Heverlee, België	OHL			Leuven
1042	Wijvenschijvencantus	2022-11-07 19:30:00+00:00	2022-11-08T00:00:00Z		Cantus	Tervuursevest 60, Leuven, Belgium	Waaiberg	50.86978773889363	4.695547865328966	Leuven
1044	Victory Run	2022-11-01 18:00:00+00:00	2022-11-01T19:00:00Z	https://www.facebook.com/events/2688731104590216/?acontext=%7B%22event_action_history%22%3A[%7B%22extra_data%22%3A%22%22%2C%22mechanism%22%3A%22unknown%22%2C%22surface%22%3A%22page%22%7D%2C%7B%22extra_data%22%3A%22%22%2C%22mechanism%22%3A%22page_upcoming_events_card%22%2C%22surface%22%3A%22page%22%7D%2C%7B%22extra_data%22%3A%22%22%2C%22mechanism%22%3A%22surface%22%2C%22surface%22%3A%22create_dialog%22%7D]%2C%22ref_notif_type%22%3Anull%7D	Sport	Tervuursevest 100, 3001 Heverlee	Gymnasium			Leuven
1046	Pyjamas party: oude zakken tap edition	2022-11-03 19:00:00+00:00	2022-11-04T03:00:00Z	https://fb.me/e/aKDbpMEVL	Party, International, First-year students	Blijde Inkomststraat 11, 3000 Leuven	Fakbar Letteren			Leuven
1047	Poëzie- en Wijnavond	2022-11-08 19:00:00+00:00	2022-11-08T22:00:00Z	https://fb.me/e/pBiwjd8nM	Culture, Lecture	Blijde Inkomststraat 11, 3000 Leuven	Fakbar Letteren			Leuven
1048	Historia op de kringenzuip // 2022	2022-11-09 19:00:00+00:00	2022-11-10T03:00:00Z	https://www.facebook.com/events/1184516709143486	Party	Blijde Inkomststraat 11	Fakbar Letteren	50.877414428704974	4.70792894214171	Leuven
1050	EJW Fakbartocht	2022-11-09 21:00:00+00:00	2022-11-09T23:00:00Z	https://www.wina.be/nl/evenementen/2022-ejw-fakbartocht/	First-year students	Studentenwijk Arenberg 4/0	De Winagang			Leuven
1051	BEST Coding Challenge 	2022-11-08 17:00:00+00:00	2022-11-08T21:00:00Z	https://bestleuven.eu/coding-challenge-2022/?fbclid=IwAR25AdAQLAcmkqX6aEqoxyiWXfPI-Dy3niU7RP4bM4THsh1HIigm5yF_Tfk	Education	Gaston Geenslaan 8, 3001 Leuven	Twipe Office 	50.866109169097165	4.672653277576906	Leuven
1052	Historia | Saloon Night	2022-11-08 19:00:00+00:00	2022-11-08T22:59:00Z	https://www.facebook.com/events/1094658691251371	Party	Blijde Inkomststraat 11	Fakbar Letteren	50.877414428704974	4.707907484469591	Leuven
1053	Workshop Cybersecurity	2022-11-09 19:30:00+00:00	2022-11-09T22:00:00Z	https://www.aftleuven.be/workshops/kpmg-cybersecurity-2/	Workshop	Naamsestraat 61, Leuven	CPR College van Premonstreit - 01.43			Leuven
1063	OOV 4	2022-11-09 19:15:00+00:00	2022-11-09T21:01:00Z	https://www.facebook.com/events/3520635804838492/?acontext=%7B%22event_action_history%22%3A[%7B%22surface%22%3A%22page%22%7D]%7D	Education	Tervuursevest 101, 3001 Heverlee	TSH 02.320			Leuven
1064	Run Tuesday	2022-11-08 18:00:00+00:00	2022-12-20T20:00:00Z	https://www.facebook.com/events/965078894895590/965078901562256?acontext=%7B%22event_action_history%22%3A[%7B%22extra_data%22%3A%22%22%2C%22mechanism%22%3A%22unknown%22%2C%22surface%22%3A%22page%22%7D%2C%7B%22extra_data%22%3A%22%22%2C%22mechanism%22%3A%22surface%22%2C%22surface%22%3A%22permalink%22%7D%2C%7B%22extra_data%22%3A%22%22%2C%22mechanism%22%3A%22surface%22%2C%22surface%22%3A%22edit_dialog%22%7D]%2C%22ref_notif_type%22%3Anull%7D	Sport	Tervuursevest 101, 3001 Heverlee	Gymnasium			Leuven
1065	Run Tuesday	2022-11-08 18:00:00+00:00	2022-11-08T19:00:00Z	https://www.facebook.com/events/965078894895590/965078901562256?acontext=%7B%22event_action_history%22%3A[%7B%22extra_data%22%3A%22%22%2C%22mechanism%22%3A%22unknown%22%2C%22surface%22%3A%22page%22%7D%2C%7B%22extra_data%22%3A%22%22%2C%22mechanism%22%3A%22surface%22%2C%22surface%22%3A%22permalink%22%7D%2C%7B%22extra_data%22%3A%22%22%2C%22mechanism%22%3A%22surface%22%2C%22surface%22%3A%22edit_dialog%22%7D]%2C%22ref_notif_type%22%3Anull%7D	Sport	Tervuursevest 101, 3001 Heverlee	Gymnasium			Leuven
1066	Run Tuesday	2022-11-15 18:00:00+00:00	2022-11-15T20:00:00Z	https://www.facebook.com/events/965078894895590/965078901562256?acontext=%7B%22event_action_history%22%3A[%7B%22extra_data%22%3A%22%22%2C%22mechanism%22%3A%22unknown%22%2C%22surface%22%3A%22page%22%7D%2C%7B%22extra_data%22%3A%22%22%2C%22mechanism%22%3A%22surface%22%2C%22surface%22%3A%22permalink%22%7D%2C%7B%22extra_data%22%3A%22%22%2C%22mechanism%22%3A%22surface%22%2C%22surface%22%3A%22edit_dialog%22%7D]%2C%22ref_notif_type%22%3Anull%7D	Sport	Tervuursevest 101, 3001 Heverlee	Gymnasium			Leuven
1067	Run Tuesday	2022-11-22 18:00:00+00:00	2022-11-22T19:00:00Z	https://www.facebook.com/events/965078894895590/965078901562256?acontext=%7B%22event_action_history%22%3A[%7B%22extra_data%22%3A%22%22%2C%22mechanism%22%3A%22unknown%22%2C%22surface%22%3A%22page%22%7D%2C%7B%22extra_data%22%3A%22%22%2C%22mechanism%22%3A%22surface%22%2C%22surface%22%3A%22permalink%22%7D%2C%7B%22extra_data%22%3A%22%22%2C%22mechanism%22%3A%22surface%22%2C%22surface%22%3A%22edit_dialog%22%7D]%2C%22ref_notif_type%22%3Anull%7D	Sport	Tervuursevest 101, 3001 Heverlee	Gymnasium			Leuven
1068	Run Tuesday	2022-11-29 18:00:00+00:00	2022-11-29T19:00:00Z	https://www.facebook.com/events/965078894895590/965078901562256?acontext=%7B%22event_action_history%22%3A[%7B%22extra_data%22%3A%22%22%2C%22mechanism%22%3A%22unknown%22%2C%22surface%22%3A%22page%22%7D%2C%7B%22extra_data%22%3A%22%22%2C%22mechanism%22%3A%22surface%22%2C%22surface%22%3A%22permalink%22%7D%2C%7B%22extra_data%22%3A%22%22%2C%22mechanism%22%3A%22surface%22%2C%22surface%22%3A%22edit_dialog%22%7D]%2C%22ref_notif_type%22%3Anull%7D	Sport	Tervuursevest 101, 3001 Heverlee	Gymnasium			Leuven
1069	Run Tuesday	2022-12-06 18:00:00+00:00	2022-12-06T19:00:00Z	https://www.facebook.com/events/965078894895590/965078901562256?acontext=%7B%22event_action_history%22%3A[%7B%22extra_data%22%3A%22%22%2C%22mechanism%22%3A%22unknown%22%2C%22surface%22%3A%22page%22%7D%2C%7B%22extra_data%22%3A%22%22%2C%22mechanism%22%3A%22surface%22%2C%22surface%22%3A%22permalink%22%7D%2C%7B%22extra_data%22%3A%22%22%2C%22mechanism%22%3A%22surface%22%2C%22surface%22%3A%22edit_dialog%22%7D]%2C%22ref_notif_type%22%3Anull%7D	Sport	Tervuursevest 101, 3001 Heverlee	Gymnasium			Leuven
1070	Run Tuesday	2022-12-13 18:00:00+00:00	2022-12-13T20:00:00Z	https://www.facebook.com/events/965078894895590/965078901562256?acontext=%7B%22event_action_history%22%3A[%7B%22extra_data%22%3A%22%22%2C%22mechanism%22%3A%22unknown%22%2C%22surface%22%3A%22page%22%7D%2C%7B%22extra_data%22%3A%22%22%2C%22mechanism%22%3A%22surface%22%2C%22surface%22%3A%22permalink%22%7D%2C%7B%22extra_data%22%3A%22%22%2C%22mechanism%22%3A%22surface%22%2C%22surface%22%3A%22edit_dialog%22%7D]%2C%22ref_notif_type%22%3Anull%7D	Sport	Tervuursevest 101, 3001 Heverlee	Gymnasium			Leuven
1071	Run Tuesday	2022-12-20 18:00:00+00:00	2022-12-20T20:00:00Z	https://www.facebook.com/events/965078894895590/965078901562256?acontext=%7B%22event_action_history%22%3A[%7B%22extra_data%22%3A%22%22%2C%22mechanism%22%3A%22unknown%22%2C%22surface%22%3A%22page%22%7D%2C%7B%22extra_data%22%3A%22%22%2C%22mechanism%22%3A%22surface%22%2C%22surface%22%3A%22permalink%22%7D%2C%7B%22extra_data%22%3A%22%22%2C%22mechanism%22%3A%22surface%22%2C%22surface%22%3A%22edit_dialog%22%7D]%2C%22ref_notif_type%22%3Anull%7D	Sport	Tervuursevest 101, 3001 Heverlee	Gymnasium			Leuven
1072	Internships at the EU	2022-11-24 19:00:00+00:00	2022-11-24T21:00:00Z	https://www.facebook.com/events/805452917379822?acontext=%7B%22event_action_history%22%3A[%7B%22surface%22%3A%22page%22%7D]%7D	International, Career	Erasmusplein 2	MSI1 00.20			Leuven
1073	Historia | Tarantino Filmavond	2022-11-10 19:00:00+00:00	2022-11-10T21:00:00Z	https://www.facebook.com/events/1265908547476765	Culture	Blijde Inkomststraat 11	Historia Perma	50.87740765900555	4.70792894214171	Leuven
1074	Praatcafé Go Global	2022-11-07 19:00:00+00:00	2022-11-07T21:00:00Z	https://fb.me/e/3euWWRDxb	Culture, International	Celestijnenlaan 200E 01.298, 3001 Leuven	Geogang (Gang met eland)			Leuven
1075	Food Festival @Campus Arenberg	2022-11-08 11:00:00+00:00	2022-11-08T13:30:00Z	https://fb.me/e/2noCABFhH	Culture, International, Culinary	Celestijnenlaan 200H, 3001 Leuven	Terras Quadrivium			Leuven
1076	GO Quiz	2022-11-09 18:30:00+00:00	2022-11-09T22:00:00Z	https://fb.me/e/24vxeJBF7	Culture, Quiz, International	Celestijnenlaan 200G 00.06, 3001 Leuven				Leuven
1077	Info Market	2022-11-10 18:30:00+00:00	2022-11-10T21:00:00Z	https://fb.me/e/2Vk7eEK1r	Culture, Culinary	Celestijnenlaan 200H 00.91, 3001 Leuven	Inkomhal Quadrivium (00.91)			Leuven
1078	Consulting BR Launch - Greek Evening	2022-11-21 18:30:00+00:00	2022-11-21T22:00:00Z	https://fb.me/e/5kKPfavuF	Lecture, Career	 Kasteelpark Arenberg 41, 3001 Heverlee	Aula van de Tweede Hoofdwet			Leuven
1079	Historia & Ifese | Lezing Austrofascisme	2022-11-17 19:00:00+00:00	2022-11-17T20:30:00Z	https://www.facebook.com/events/1212656299660258	Lecture	Erasmusplein 2	MSI 02.28	50.87763105856611	4.707853840289293	Leuven
1080	Het Groot Dictee der Leuvense Studenten	2022-11-22 17:30:00+00:00	2022-11-22T22:30:00Z	https://fb.me/e/2tDmHI09A	Education, Culture, Quiz	Andreas Vesaliusstraat 13, Leuven	Campus Groep T			Leuven
1082	Fakbartocht (EJW)	2022-11-10 19:00:00+00:00	2022-11-10T22:59:00Z	https://fb.me/e/1VjOkOpNf	Party, First-year students	Leuvense Fakbars				Leuven
1083	Halloweenwalk LBK & VTK	2022-10-31 18:00:00+00:00	2022-10-31T22:00:00Z	https://fb.me/e/22gMZLunp	International	Kasteelpark Arenberg 50, 3001 Leuven, België				Leuven
1090	Join Quivr	2022-11-16 19:30:00+00:00	2022-11-16T22:30:00Z	https://quivr.be/nl/join	Career	Edward van Evenstraat 4, 3000 Leuven	AGORA 04.A01 - Saint Petersburg			Leuven
1094	Historia | Erasmus infosessie	2022-11-16 19:00:00+00:00	2022-11-16T20:00:00Z	https://www.facebook.com/events/693784258830097	International	Erasmusplein 2	MSI 01.08	50.87765813722795	4.707880662379442	Leuven
1095	MedTech Convention	2022-11-23 18:00:00+00:00	2022-11-23T22:00:00Z	https://www.aftleuven.be/events/medtech-convention/	Education, International, Lecture, Career	Naamsestraat 22, 3000 Leuven	University Hall	50.87795769387468	4.700705753264605	Leuven
1096	Data Engineering Workshop	2022-11-16 17:30:00+00:00	2022-11-16T21:30:00Z	https://www.eventbrite.be/e/intro-to-data-engineering-workshop-tickets-444141829167	Education, International, Career	Andreas Vesaliusstraat 13, 3000 Leuven	KU Leuven - Campus Groep T - Room: 03.11.02 (3rd Floor)			Leuven
1098	Ideation: In-house Workshop by Vlerick	2022-11-16 17:00:00+00:00	2022-11-16T21:00:00Z	https://www.facebook.com/events/895853321406706?acontext=%7B%22event_action_history%22%3A[%7B%22extra_data%22%3A%22%22%2C%22mechanism%22%3A%22surface%22%2C%22surface%22%3A%22edit_dialog%22%7D%2C%7B%22extra_data%22%3A%22%22%2C%22mechanism%22%3A%22surface%22%2C%22surface%22%3A%22permalink%22%7D%2C%7B%22extra_data%22%3A%22%22%2C%22mechanism%22%3A%22surface%22%2C%22surface%22%3A%22edit_dialog%22%7D]%2C%22ref_notif_type%22%3Anull%7D	Education, International, Workshop, Lecture, Career	Vlamingenstraat 83, 3000 Leuven	Vlerick Business School Leuven			Leuven
1099	No/Low Code Workshop	2022-11-21 19:00:00+00:00	2022-11-21T21:00:00Z	https://www.facebook.com/events/1995906597270502?acontext=%7B%22event_action_history%22%3A[%7B%22extra_data%22%3A%22%22%2C%22mechanism%22%3A%22surface%22%2C%22surface%22%3A%22edit_dialog%22%7D%2C%7B%22extra_data%22%3A%22%22%2C%22mechanism%22%3A%22surface%22%2C%22surface%22%3A%22permalink%22%7D%2C%7B%22extra_data%22%3A%22%22%2C%22mechanism%22%3A%22surface%22%2C%22surface%22%3A%22edit_dialog%22%7D]%2C%22ref_notif_type%22%3Anull%7D	Education, International, Workshop, Lecture, Career	Naamsestraat 61, 3000 Leuven	CPR College van Premonstreit 	50.87698455084232	4.700542138514696	Leuven
1103	Rope skipping initiation // Sportsweek	2022-11-14 20:00:00+00:00	2022-11-14T22:00:00Z	https://www.facebook.com/events/463296279121203?acontext=%7B%22event_action_history%22%3A[%7B%22surface%22%3A%22page%22%7D]%7D	Sport	Tervuursevest 101, 3001 Heverlee	IAH			Leuven
1105	Spikeball initiation // Sportsweek	2022-11-15 12:00:00+00:00	2022-11-15T15:00:00Z	https://www.facebook.com/events/1155879448638491?acontext=%7B%22event_action_history%22%3A[%7B%22surface%22%3A%22page%22%7D]%7D	Sport	Tervuursevest 101, 3001 Heverlee	Outdoor beachvolleybal fields			Leuven
1106	Salsa initiation // Sportsweek	2022-11-15 17:00:00+00:00	2022-11-15T18:00:00Z	https://www.facebook.com/events/742554644111569?acontext=%7B%22event_action_history%22%3A[%7B%22surface%22%3A%22page%22%7D]%7D	Sport	Tervuursevest 101, 3001 Heverlee	TSH			Leuven
1107	Sportsquiz // Sportsweek	2022-11-16 18:00:00+00:00	2022-11-16T22:00:00Z	https://www.facebook.com/events/415265697486757/?acontext=%7B%22event_action_history%22%3A[%7B%22surface%22%3A%22page%22%7D]%7D	Sport	Tervuursevest 101, 3001 Heverlee	GBDN aula 01.01			Leuven
1108	Crossfit // Sportsweek	2022-11-17 17:00:00+00:00	2022-11-17T18:00:00Z	https://www.facebook.com/events/658893935865378/?acontext=%7B%22event_action_history%22%3A[%7B%22surface%22%3A%22page%22%7D]%7D	Sport	Tervuursevest 101, 3001 Heverlee	IAH			Leuven
1113	Historia | Studio 100 feestje	2022-11-15 19:00:00+00:00	2022-11-15T22:59:00Z	https://www.facebook.com/events/3157093491269583	Party	Blijde Inkomststraat 11	Fakbar Letteren	50.87763782823304	4.707891391215502	Leuven
1115	Historia | Jenevervoetbal	2022-11-24 19:00:00+00:00	2022-11-24T21:00:00Z	https://www.facebook.com/events/1465986060473798	Sport	Brouwersstraat	De Bruul	50.88394673024469	4.695317195353685	Leuven
1116	Jong Voorzittersdebat 	2022-11-24 18:00:00+00:00	2022-11-24T19:45:00Z	https://fb.me/e/2qQ8an8oa	Culture	Parkstraat 45, 3000 Leuven 	AV 91.12, Faculteit sociale weteschappen 			Leuven
1122	Amnesty Writing Afternoon	2022-11-28 12:00:00+00:00	2022-11-28T18:00:00Z	https://fb.me/e/3CXipcQUU	Culture, Charity, International	Blijde Inkomststraat 11, 3000 Leuven	Fakbar Letteren			Leuven
1123	Ravioli foodsale 	2022-11-23 10:00:00+00:00	2022-11-23T13:00:00Z	https://fb.me/e/2Xw12wbT4	Quiz, Culinary, First-year students	Erasmusplein 2, 3000 Leuven	MSI (faculty of ARTS)			Leuven
1124	Masked evening	2022-12-01 19:00:00+00:00	2022-12-02T03:00:00Z	https://fb.me/e/9x8wq3bON	Party, International	Blijde Inkomststraat 11, 3000 Leuven	Fakbar Letteren	50.87724264727888	4.708017455039202	Leuven
1125	Peter- en metersoirée	2022-11-16 20:00:00+00:00	2022-11-16T22:00:00Z	https://fb.me/e/2c3Zytz47	First-year students	Erasmusplein 2, 3000 Leuven	MSI 02.18	50.87763105856614	4.707794831690966	Leuven
1126	BIOS: Reis rond de wereld QUIZ (VOLZET)	2022-11-16 18:30:00+00:00	2022-11-16T22:59:00Z	https://fb.me/e/2Xd4mkVi6	Quiz	Hagelandstraat 4, 3012 Leuven				Leuven
1127	BIOS Blokhutavond	2022-11-15 20:00:00+00:00	2022-11-16T02:00:00Z	https://fb.me/e/3G4cf4i9Y	Party	Oude Markt 49, Leuven, Belgium	Blokhut 			Leuven
1128	Historia |Onderwijsvergadering	2022-11-22 17:00:00+00:00	2022-11-22T19:00:00Z	https://www.facebook.com/events/1075898946425582	Education	Erasmusplein 2	MSI 00.08	50.87763782823301	4.707864569125353	Leuven
1129	Consulting Job Fair by 180DC Leuven	2022-11-24 18:30:00+00:00	2022-11-24T21:00:00Z	https://fb.me/e/2qyJZnxG5	International, Career	Parkstraat 51, 3000 Leuven	Entrance Hall Max Weber			Leuven
1130	Pajama Party	2022-11-25 22:00:00+00:00	2022-11-26T04:00:00Z	https://www.facebook.com/events/534916268094827?ref=newsfeed	Party	Kiekenstraat 6, 3000 Leuven	Rumba & Co			Leuven
1131	BIOS: Anything But A Cup Cantus	2022-11-24 19:00:00+00:00	2022-11-24T21:00:00Z	https://fb.me/e/2wRBqZQbq	Cantus	Kiekenstraat 6, 3000 Leuven	Popclub 			Leuven
1132	BIOS Christmasparty	2022-12-15 17:00:00+00:00	2022-12-15T21:00:00Z	https://fb.me/e/5BI0hkup5	Culinary	Leuven Hagelandstraat 4	Pacem			Leuven
1133	PEME-groepen jeneverwandeling // Genderweek	2022-11-23 20:00:00+00:00	2022-11-23T22:00:00Z	https://www.facebook.com/events/800373197738623?acontext=%7B%22event_action_history%22%3A[%7B%22extra_data%22%3A%22%22%2C%22mechanism%22%3A%22surface%22%2C%22surface%22%3A%22create_dialog%22%7D%2C%7B%22extra_data%22%3A%22%22%2C%22mechanism%22%3A%22surface%22%2C%22surface%22%3A%22permalink%22%7D%2C%7B%22extra_data%22%3A%22%22%2C%22mechanism%22%3A%22surface%22%2C%22surface%22%3A%22edit_dialog%22%7D]%2C%22ref_notif_type%22%3Anull%7D	Party, First-year students	Steengroevelaan 3, 3001 Heverlee	Cudi			Leuven
1135	Historia | De soep van Ben Weyts eetverkoop	2022-11-23 11:30:00+00:00	2022-11-23T13:30:00Z	https://www.facebook.com/events/499928375418189	Culinary	Erasmusplein 2	Fakbar Letteren	50.87749228017723	4.708020137248217	Leuven
1148	Historia | Quiz	2022-11-23 19:00:00+00:00	2022-11-23T21:00:00Z	https://www.facebook.com/events/531567042175752	Quiz	Erasmusplein 2	MSI 03.18	50.87780368476575	4.708095239100634	Leuven
1149	Collectieve Blok	2022-12-26 11:30:00+00:00	2022-12-31T11:00:00Z	https://www.comac-studenten.be/collectieve-blok	Education, Career, First-year students	Martelarenplein, 3000 Leuven	Huize Radeske	50.88134068865148	4.715385483203112	Leuven
1153	BLOEDROCK - Bloedserieus	2022-11-21 21:00:00+00:00	2022-11-22T03:00:00Z	https://fb.me/e/5fdJ9IWZE	Charity, Party	Brusselsestraat 246, Leuven 	Doc's Bar			Leuven
1154	Pottery workshop 	2022-11-22 18:00:00+00:00	2022-11-24T21:00:00Z	https://www.wina.be/en/evenementen/pottery-workshop/	Culture, Workshop	Studentenwijk Arenberg 4/0	Winaliving			Leuven
1155	Pottery workshop 	2022-11-22 18:00:00+00:00	2022-11-22T21:00:00Z	https://www.wina.be/en/evenementen/pottery-workshop/	Culture, Workshop	Studentenwijk Arenberg 4/0	Winaliving			Leuven
1156	Pottery workshop 	2022-11-24 18:00:00+00:00	2022-11-24T21:00:00Z	https://www.wina.be/en/evenementen/pottery-workshop/	Culture, Workshop	Studentenwijk Arenberg 4/0	Winaliving			Leuven
1158	Infomoment Presidium	2022-11-24 12:00:00+00:00	2022-11-24T13:00:00Z	https://www.wina.be/en/evenementen/2022-infomoment-presidium/	Education	Campus Arenberg	Aula Erik Duval 			Leuven
1159	Dessertenverkoop Interuniversitaire Literaire Prijs	2022-11-28 10:00:00+00:00	2022-12-01T15:00:00Z	https://fb.me/e/20pGKhrlG	Culture, Culinary	Erasmusplein 2, 3000 Leuven	MSI (hal) & LETT: Erasmushuis (entry) 	50.87754982248619	4.708830164370714	Leuven
1160	Dessertenverkoop Interuniversitaire Literaire Prijs	2022-11-28 10:00:00+00:00	2022-11-28T15:00:00Z	https://fb.me/e/20pGKhrlG	Culture, Culinary	Erasmusplein 2, 3000 Leuven	MSI (hal) & LETT: Erasmushuis (entry) 	50.87754982248619	4.708830164370714	Leuven
1161	Dessertenverkoop Interuniversitaire Literaire Prijs	2022-11-29 10:00:00+00:00	2022-11-29T15:00:00Z	https://fb.me/e/20pGKhrlG	Culture, Culinary	Erasmusplein 2, 3000 Leuven	MSI (hal) & LETT: Erasmushuis (entry) 	50.87754982248619	4.708830164370714	Leuven
1162	Dessertenverkoop Interuniversitaire Literaire Prijs	2022-11-30 10:00:00+00:00	2022-11-30T14:00:00Z	https://fb.me/e/20pGKhrlG	Culture, Culinary	Erasmusplein 2, 3000 Leuven	MSI (hal) & LETT: Erasmushuis (entry) 	50.87754982248619	4.708830164370714	Leuven
1163	Dessertenverkoop Interuniversitaire Literaire Prijs	2022-12-01 10:00:00+00:00	2022-12-01T15:00:00Z	https://fb.me/e/20pGKhrlG	Culture, Culinary	Erasmusplein 2, 3000 Leuven	MSI (hal) & LETT: Erasmushuis (entry) 	50.87754982248619	4.708830164370714	Leuven
1164	Ice Skating with Babylon and Historia 	2022-11-30 18:30:00+00:00	2022-11-30T20:00:00Z	https://fb.me/e/32kIynVNj	Sport, International	Ondernemingenweg 1, 3001 Leuven	Schaatsbaan Leuven	50.85370091237058	4.713969276843248	Leuven
1165	Historia | Decadente avond	2022-11-22 19:00:00+00:00	2022-11-22T22:59:00Z	https://www.facebook.com/events/829449168305673	Party	Blijde Inkomststraat 11	Fakbar Letteren	50.87737381049389	4.707896755633532	Leuven
1167	Poker tournament	2022-11-28 19:00:00+00:00	2022-11-28T21:00:00Z	https://www.wina.be/en/evenementen/poker-tournament-2022/	Sport	Kasteelpark Arenberg 41, 3001 Leuven	Theokot			Leuven
1168	Education Brunch	2022-11-29 09:00:00+00:00	2022-11-29T14:30:00Z	https://www.wina.be/en/evenementen/education-brunch2022/	Education	Campus Arenberg 200	Hall of QDV			Leuven
1170	EJWat de blok	2022-12-01 11:30:00+00:00	2022-12-01T12:30:00Z	https://www.wina.be/nl/evenementen/2022-ejwat-de-blok/	Education, First-year students	Campus Arenberg 200	Aula 00.06 200 K			Leuven
1176	Historia | Dutch music night	2022-11-29 19:00:00+00:00	2022-11-30T02:00:00Z	https://www.facebook.com/events/1210718629826241	Party	Blijde Inkomststraat 11	Fakbar Letteren	50.87741442870493	4.707907484469591	Leuven
1177	The Marriage of Heaven and Hell	2022-12-13 19:00:00+00:00	2022-12-16T22:00:00Z	https://leuvensuniversitairkoor.be/nl/nieuws/concert-met-het-arenbergorkest/	Culture	Naamsesteenweg 355, 3001 Leuven	Boodschapkapel			Leuven
1178	The Marriage of Heaven and Hell	2022-12-13 19:00:00+00:00	2022-12-13T22:00:00Z	https://leuvensuniversitairkoor.be/nl/nieuws/concert-met-het-arenbergorkest/	Culture	Naamsesteenweg 355, 3001 Leuven	Boodschapkapel			Leuven
1179	The Marriage of Heaven and Hell	2022-12-15 19:00:00+00:00	2022-12-15T22:00:00Z	https://leuvensuniversitairkoor.be/nl/nieuws/concert-met-het-arenbergorkest/	Culture	Naamsesteenweg 355, 3001 Leuven	Boodschapkapel			Leuven
1180	The Marriage of Heaven and Hell	2022-12-16 19:00:00+00:00	2022-12-16T22:00:00Z	https://leuvensuniversitairkoor.be/nl/nieuws/concert-met-het-arenbergorkest/	Culture	Naamsesteenweg 355, 3001 Leuven	Boodschapkapel			Leuven
1181	Women in Finance	2022-11-30 19:00:00+00:00	2022-11-30T22:30:00Z		Career	Parkstraat 51, 3000 Leuven	Aula Max Weber			Leuven
1188	Sinterkerstcantus	2022-12-06 19:00:00+00:00	2022-12-06T23:00:00Z	https://www.wina.be/nl/evenementen/2022-sinterkerstcantus/	Cantus	Jules Vandenbemptlaan 2, 3001 Heverlee	PAVO			Leuven
1190	Workshop Computer Vision by Apixa	2022-12-06 19:30:00+00:00	2022-12-06T22:00:00Z	https://www.aftleuven.be/workshops/apixa-computer-vision/	Education, Workshop	Naamsestraat 61	College van Premonstreit 1.43	50.87554595435238	4.70070843547362	Leuven
1191	Nintendo Lan-Party	2022-11-30 19:15:00+00:00	2022-11-30T22:30:00Z	https://www.facebook.com/events/667773781480331/?acontext=%7B%22event_action_history%22%3A[%7B%22extra_data%22%3A%22%22%2C%22mechanism%22%3A%22unknown%22%2C%22surface%22%3A%22page%22%7D%2C%7B%22extra_data%22%3A%22%22%2C%22mechanism%22%3A%22page_upcoming_events_card%22%2C%22surface%22%3A%22page%22%7D%2C%7B%22extra_data%22%3A%22%22%2C%22mechanism%22%3A%22surface%22%2C%22surface%22%3A%22create_dialog%22%7D]%2C%22ref_notif_type%22%3Anull%7D	Party	Andreas Vesalius 34, 3000 Leuven	Pangaea			Leuven
1192	Winter Cantus	2022-12-04 18:00:00+00:00	2022-12-04T22:30:00Z	https://www.facebook.com/events/1329508161212493/?acontext=%7B%22event_action_history%22%3A[%7B%22extra_data%22%3A%22%22%2C%22mechanism%22%3A%22unknown%22%2C%22surface%22%3A%22page%22%7D%2C%7B%22extra_data%22%3A%22%22%2C%22mechanism%22%3A%22page_upcoming_events_card%22%2C%22surface%22%3A%22page%22%7D%2C%7B%22extra_data%22%3A%22%22%2C%22mechanism%22%3A%22surface%22%2C%22surface%22%3A%22create_dialog%22%7D]%2C%22ref_notif_type%22%3Anull%7D	Cantus	Kiekenstraat 6, 3000 Leuven	Rumba			Leuven
1193	PEME-Groepen Jeneverwandeling // Genderweek	2022-11-28 20:00:00+00:00	2022-11-28T22:00:00Z	https://www.facebook.com/events/800373197738623?acontext=%7B%22event_action_history%22%3A[%7B%22surface%22%3A%22page%22%7D]%7D	First-year students	Steengroevelaan 3, 3001 Heverlee	Cudi Apolloon			Leuven
1194	Blushing on the Karmelietenberg // Genderweek	2022-11-29 16:30:00+00:00	2022-11-29T21:00:00Z	https://www.facebook.com/events/1273105293263215?acontext=%7B%22event_action_history%22%3A[%7B%22surface%22%3A%22page%22%7D]%7D	Cantus	Tervuursevest 60, 3000 Leuven	De sportzak / 't elixir			Leuven
1195	Familiedag Apolloon	2022-12-10 10:00:00+00:00	2022-12-10T23:00:00Z	https://www.facebook.com/events/686879466369362/?acontext=%7B%22event_action_history%22%3A[%7B%22extra_data%22%3A%22%22%2C%22mechanism%22%3A%22surface%22%2C%22surface%22%3A%22create_dialog%22%7D%2C%7B%22extra_data%22%3A%22%22%2C%22mechanism%22%3A%22surface%22%2C%22surface%22%3A%22permalink%22%7D%2C%7B%22extra_data%22%3A%22%22%2C%22mechanism%22%3A%22surface%22%2C%22surface%22%3A%22edit_dialog%22%7D]%2C%22ref_notif_type%22%3Anull%7D	Culture, Sport, Party, Lecture	Tervuursevest 101, 3001 Heverlee	Universitair Sport Centrum			Leuven
1199	 ACE THE CASE 	2022-12-07 18:00:00+00:00	2022-12-07T20:00:00Z	https://podio.com/webforms/28077261/2213233	Workshop, Career	Sint-Michielsstraat 6 , 3000 Leuven	AUG 01.50			Leuven
1200	Sector Talks	2022-12-07 17:00:00+00:00	2022-12-07T20:00:00Z	https://ekonomika.be/evenementen/sector-talks/	Career	Boekhandelstraat 2	Radiohuis			Leuven
1201	Sinterklaas studiesessie met EBW	2022-12-07 12:00:00+00:00	2022-12-07T16:00:00Z	https://fb.me/e/5Brdacubx	Education, First-year students	Erasmusplein 2, 3000 Leuven	MSI 01.20			Leuven
1202	Piratenfeestje	2022-12-08 19:00:00+00:00	2022-12-09T03:00:00Z	https://fb.me/e/28VMy2hB7	Party, International	Blijde inkomststraat 11, 3000 Leuven	Fakbar Letteren	50.8773399619576	4.707821653781115	Leuven
1203	Ghost Stories for Christmas: A Reading Marathon	2022-12-15 09:00:00+00:00	2022-12-15T17:30:00Z	https://fb.me/e/2kqNAptLr	Culture, International, Lecture	Erasmusplein 2, 3000 Leuven	Faculteit Letteren (Erasmushuis)	50.87725872537024	4.709484623370348	Leuven
1205	Student Startup Trip Info-Event	2022-11-30 18:30:00+00:00	2022-11-30T22:00:00Z	https://www.facebook.com/events/1231158507444678?acontext=%7B%22event_action_history%22%3A[%7B%22surface%22%3A%22page%22%7D]%7D	Education, International, Career	Naamsestraat 61, 3000 Leuven	CPR Aula A	50.87465230970129	4.700086162982164	Leuven
1206	Sintercantus	2022-12-05 19:00:00+00:00	2022-12-05T22:00:00Z	https://www.facebook.com/events/668772041499465/	Cantus, Charity	Tiensestraat 51, 3000 Leuven	Zaaltje achter de Recup	50.87718764324015	4.704763935504137	Leuven
1207	Jamsessie	2022-12-07 18:30:00+00:00	2022-12-07T20:30:00Z	https://fb.me/e/5mn97gk6B	Culture	Tiensestraat 55, 3000 Leuven	Politika Kaffee			Leuven
1212	Historia | Sinterklaasavond	2022-12-06 19:00:00+00:00	2022-12-07T02:00:00Z	https://www.facebook.com/events/667866351552393	Party	Blijde Inkomststraat 11	Fakbar Letteren	50.87740427415552	4.707918213305651	Leuven
1215	Get a Taste of Engage	2022-12-14 14:30:00+00:00	2022-12-14T17:30:00Z	https://fb.me/e/2Q1cKBHOy	Education, Charity	Edward van Evenstraat 4	Chill&Refill Agora			Leuven
1216	Winterfest	2022-12-15 16:00:00+00:00	2022-12-15T21:00:00Z	https://www.facebook.com/events/6098079566878338	Culture, Charity, Party	Tervuursevest 101, Heverlee 3001	Square in front of the Gymnasium			Leuven
1217	Ice skating	2022-12-07 18:00:00+00:00	2022-12-07T21:00:00Z	https://www.facebook.com/events/815474933089106	Sport	Ondernemingenweg 1, 3001 Leuven, België	Ijsbaan Leuven			Leuven
1219	Theokot Kerstdiner	2022-12-12 17:00:00+00:00	2022-12-12T22:00:00Z	https://www.facebook.com/events/523455999694579		Kasteelpark Arenberg 41	Theokot			Leuven
1231	Historia | 90's Party	2022-12-13 19:00:00+00:00	2022-12-14T03:00:00Z	https://www.facebook.com/events/533136798697784	Party	Blijde Inkomststraat 11	Fakbar Letteren	50.877414428704974	4.707912848887621	Leuven
1232	Sustainable Christmas Market 	2022-12-14 14:00:00+00:00	2022-12-14T21:00:00Z	https://fb.me/e/1KXQTXYYM		Martelarenplein Leuven 		50.88106992272437	4.7144413456298695	Leuven
1235	Historia | Onderwijsvergadering	2022-12-12 17:00:00+00:00	2022-12-12T19:00:00Z	https://www.facebook.com/events/428634182664542	Education	Erasmusplein 2	MSI 00.08	50.87765136756394	4.707864569125353	Leuven
1236	Babylon / Space Spaghetti - free pasta pesto	2022-12-20 11:00:00+00:00	2022-12-20T12:00:00Z	https://fb.me/e/1St5uDKvv	Culinary	Erasmusplein 2, 3000 Leuven	MSI			Leuven
1237	Historia | Winter Beach Party	2022-12-20 19:00:00+00:00	2022-12-21T03:00:00Z	https://www.facebook.com/events/1490174361451187	Party	Blijde Inkomststraat 11	Fakbar Letteren	50.87739750445462	4.707896755633532	Leuven
1240	Wina @warmathon	2022-12-23 14:00:00+00:00	2022-12-23T15:00:00Z	https://www.wina.be/en/evenementen/wina-warmathon/	Sport, Charity	the parking of the stadion OHL (Kardinaal Mercierlaan) - 3000 Leuven				Leuven
1242	Christmas Dinner	2022-12-22 17:00:00+00:00	2022-12-22T23:00:00Z	https://www.wina.be/en/evenementen/christmas-dinner/	Party, Culinary	Ortolanenstraat 6, 3010 Kessel-Lo	Don Bosco Community Center, Room A			Leuven
1243	Historia | Blokpakkettenverkoop	2022-12-21 11:30:00+00:00	2022-12-21T13:30:00Z	https://www.facebook.com/events/864497091251371	Culinary	Erasmusplein 2	Fakbar Letteren	50.87751089681435	4.708001361785112	Leuven
1244	Aftaprès-ski	2022-12-22 20:00:00+00:00	2022-12-23T04:00:00Z	https://fb.me/e/2v7u46QCN	Party	Tiensestraat 51 3000 Leuven	Recup			Leuven
